{"type": "FeatureCollection", "features": [{"type": "Feature", "geometry": {"type": "LineString", "coordinates": [[-0.11727, 51.51017, 5.5], [-0.11686, 51.51029, 5.5], [-0.11566, 51.51057, 5.3], [-0.1156, 51.51061, 5.3], [-0.11528, 51.51067, 5.3], [-0.1151, 51.51066, 5.4], [-0.11428, 51.510785, 5.3], [-0.11346, 51.51091, 5.3], [-0.112745, 51.510975, 5.4], [-0.11203, 51.51104, 5.4], [-0.11073, 51.51107, 5.4], [-0.109421, 51.511056, 5.3], [-0.108113, 51.511043, 5.3], [-0.106804, 51.51103, 6.5], [-0.105496, 51.511016, 5.2], [-0.104188, 51.511003, 4.4], [-0.10288, 51.51099, 5.2], [-0.10268, 51.51103, 5.2], [-0.10146, 51.51115, 6.1], [-0.1005, 51.51122, 6.0], [-0.099699, 51.51123, 5.7], [-0.0989, 51.51124, 5.5], [-0.097773, 51.51122, 6.2], [-0.096646, 51.5112, 7.4], [-0.09552, 51.51118, 7.5], [-0.09507, 51.51114, 7.8], [-0.094154, 51.511025, 7.8], [-0.09324, 51.51091, 8.2], [-0.09316, 51.5109, 8.2], [-0.09303, 51.51084, 8.2], [-0.092239, 51.510695, 7.9], [-0.09145, 51.51055, 7.6], [-0.09122, 51.51054, 7.4], [-0.0909, 51.51047, 7.4], [-0.09087, 51.51044, 7.4], [-0.0903, 51.51034, 7.6], [-0.08976, 51.51023, 7.6], [-0.08959, 51.51021, 7.6], [-0.08833, 51.50988, 7.4], [-0.08828, 51.50983, 7.4], [-0.08808, 51.5098, 7.4], [-0.08766, 51.50973, 7.4], [-0.08754, 51.50976, 7.4], [-0.08731, 51.50973, 7.4], [-0.08621, 51.50957, 7.4], [-0.084913, 51.509413, 7.0], [-0.083616, 51.509256, 6.9], [-0.08232, 51.5091, 7.2], [-0.08192, 51.50908, 8.0], [-0.08184, 51.50904, 8.0], [-0.08161, 51.50906, 8.5], [-0.08122, 51.50912, 9.4], [-0.08082, 51.50925, 10.9], [-0.08025, 51.50951, 13.0], [-0.08013, 51.50951, 13.0], [-0.07985, 51.50958, 13.2], [-0.07955, 51.50961, 13.4], [-0.07863, 51.50955, 13.6], [-0.07796, 51.50943, 12.8], [-0.07775, 51.50943, 12.7], [-0.07672, 51.50949, 12.5], [-0.07602, 51.50958, 12.1], [-0.07552, 51.50969, 12.6], [-0.0751, 51.50981, 13.6], [-0.07505, 51.50986, 13.6], [-0.07477, 51.50992, 13.6], [-0.07454, 51.50992, 13.6], [-0.07423, 51.50985, 14.4], [-0.07406, 51.50974, 14.7], [-0.07393, 51.50959, 14.7], [-0.07364, 51.50934, 13.8], [-0.07329, 51.50896, 13.8], [-0.0731, 51.50884, 12.6], [-0.07281, 51.50873, 12.4], [-0.07179, 51.50839, 10.8], [-0.0711, 51.5083, 10.3], [-0.07016, 51.50845, 10.5], [-0.06922, 51.5086, 9.9], [-0.06904, 51.50865, 9.9], [-0.06886, 51.50874, 9.9], [-0.06873, 51.50873, 9.9], [-0.06844, 51.50882, 10.1], [-0.06826, 51.50892, 10.3], [-0.06792, 51.50902, 10.4], [-0.06773, 51.50905, 10.4], [-0.06758, 51.50911, 10.4], [-0.067, 51.50926, 10.2], [-0.06644, 51.50934, 9.5], [-0.06619, 51.50936, 9.4], [-0.065409, 51.50933, 9.2], [-0.06463, 51.5093, 9.4], [-0.06383, 51.50931, 9.9], [-0.06303, 51.50932, 10.8], [-0.06292, 51.50935, 11.0], [-0.06267, 51.50936, 11.1], [-0.06253, 51.50933, 11.1], [-0.06144, 51.50936, 11.1], [-0.06078, 51.50941, 10.7], [-0.06074, 51.50945, 10.7], [-0.0605, 51.50947, 10.7], [-0.06004, 51.50951, 10.6], [-0.05988, 51.50949, 10.6], [-0.05887, 51.50959, 10.3], [-0.0587, 51.50964, 10.4], [-0.0585, 51.50967, 10.4], [-0.05814, 51.5097, 10.6], [-0.05801, 51.50968, 10.6], [-0.05713, 51.50972, 10.5], [-0.05694, 51.50975, 10.5], [-0.05678, 51.50972, 10.5], [-0.056019, 51.50967, 10.6], [-0.05526, 51.50962, 11.3], [-0.05434, 51.50963, 12.2], [-0.05402, 51.50967, 12.2], [-0.0537, 51.50965, 12.1], [-0.05255, 51.509695, 11.4], [-0.0514, 51.50974, 11.2], [-0.05081, 51.50979, 11.0], [-0.0506, 51.50975, 11.2], [-0.05047, 51.5098, 11.2], [-0.05035, 51.5098, 11.2], [-0.04985, 51.50978, 11.6], [-0.049004, 51.50978, 12.0], [-0.04816, 51.50978, 11.2], [-0.04775, 51.50984, 11.2], [-0.04726, 51.50984, 10.7], [-0.04703, 51.50988, 10.3], [-0.04651, 51.51002, 10.0], [-0.04619, 51.51013, 9.7], [-0.04585, 51.51021, 9.4], [-0.04563, 51.51024, 9.2], [-0.04475, 51.5103, 8.9], [-0.04397, 51.51033, 8.8], [-0.04388, 51.51037, 8.7], [-0.04364, 51.5104, 8.7], [-0.04339, 51.51042, 8.7], [-0.04318, 51.51041, 8.7], [-0.04259, 51.5105, 8.6], [-0.04238, 51.51057, 8.8], [-0.04223, 51.5106, 9.0], [-0.04082, 51.51072, 7.0], [-0.04039, 51.51079, 3.9], [-0.03964, 51.51102, 2.3], [-0.03853, 51.51153, 2.0], [-0.03812, 51.51165, 1.8], [-0.03767, 51.51176, 0.9], [-0.03724, 51.51182, 1.4], [-0.03669, 51.51184, 1.2], [-0.03606, 51.51181, 2.0], [-0.03558, 51.51174, 0.9], [-0.0347, 51.51149, 0.9], [-0.03436, 51.51133, 2.2], [-0.03404, 51.51115, 2.1], [-0.03379, 51.51096, 1.4], [-0.03341, 51.51059, 2.3], [-0.032989, 51.510055, 1.9], [-0.03257, 51.50952, 9.5], [-0.03205, 51.50876, 19.4], [-0.03184, 51.50851, 19.0], [-0.03157, 51.50828, 18.6], [-0.0313, 51.50811, 19.3], [-0.03096, 51.50796, 19.1], [-0.03063, 51.50785, 19.0], [-0.03027, 51.50776, 19.0], [-0.02999, 51.50772, 18.8], [-0.02924, 51.5077, 18.2], [-0.02862, 51.50776, 17.3], [-0.02811, 51.5079, 18.1], [-0.02727, 51.50828, 16.8], [-0.02643, 51.50866, 16.3], [-0.02638, 51.5087, 16.4], [-0.02612, 51.50879, 16.5], [-0.02548, 51.50895, 15.6], [-0.02498, 51.50898, 14.9], [-0.02464, 51.50897, 15.7], [-0.02387, 51.50889, 14.8], [-0.023159, 51.50872, 14.3], [-0.02245, 51.50855, 1.0], [-0.021519, 51.508345, 2.5], [-0.02059, 51.50814, 3.1], [-0.0198, 51.50789, 3.4], [-0.019074, 51.50775, 5.6], [-0.01835, 51.50761, 6.0], [-0.01736, 51.50746, 6.3], [-0.01635, 51.50735, 6.2], [-0.01557, 51.50728, 6.1], [-0.01424, 51.50723, 5.5], [-0.013445, 51.50724, 5.5], [-0.01265, 51.50725, 5.7], [-0.01185, 51.5073, 6.0], [-0.01105, 51.50735, 6.1], [-0.010145, 51.50743, 8.7], [-0.00924, 51.50751, 11.6], [-0.008215, 51.507595, 14.7], [-0.00719, 51.50768, 14.0], [-0.00653, 51.50776, 11.5], [-0.00606, 51.50784, 8.7], [-0.00531, 51.50802, 6.1], [-0.00481, 51.50822, 5.5], [-0.00457, 51.50835, 5.5], [-0.00394, 51.50877, 5.7], [-0.00369, 51.50896, 6.1], [-0.00335, 51.50926, 7.6], [-0.00299, 51.50967, 8.1], [-0.00253, 51.51005, 8.0], [-0.00224, 51.51027, 8.0], [-0.00198, 51.51039, 8.3], [-0.00148, 51.51057, 9.3], [-0.0012, 51.51061, 9.4], [-0.00067, 51.51063, 9.2], [-0.00016, 51.5106, 8.6], [0.00018, 51.51073, 7.9], [0.00026, 51.51089, 7.6], [0.00039, 51.511, 7.6], [0.00053, 51.51104, 7.1], [0.0009, 51.51109, 7.1], [0.00114, 51.51105, 6.7], [0.00136, 51.51093, 6.7], [0.00146, 51.51076, 6.8], [0.00148, 51.51069, 6.8], [0.0017, 51.51049, 6.9], [0.00181, 51.51042, 6.9], [0.00192, 51.51038, 7.4], [0.00285, 51.51018, 9.0], [0.00333, 51.51013, 10.2], [0.00382, 51.51011, 12.4], [0.00434, 51.51012, 15.4], [0.00547, 51.5102, 19.1], [0.00614, 51.51021, 19.4], [0.0068, 51.51019, 18.5], [0.00802, 51.51009, 14.2], [0.00869, 51.50999, 11.9], [0.00916, 51.50989, 11.3], [0.00986, 51.50972, 10.6], [0.010963, 51.509396, 7.0], [0.012066, 51.509073, 2.9], [0.01317, 51.50875, 3.2], [0.01328, 51.50874, 3.2], [0.01344, 51.50874, 3.2], [0.01384, 51.50886, 3.5], [0.01396, 51.50887, 3.5], [0.01419, 51.50881, 3.4], [0.01506, 51.50879, 4.1], [0.01569, 51.50868, 4.5], [0.01596, 51.50857, 5.3], [0.0162, 51.50843, 5.5], [0.01596, 51.50821, 6.3], [0.01597, 51.50822, 6.3], [0.01588, 51.50817, 6.6], [0.0155, 51.50813, 7.4], [0.0153, 51.5081, 7.5], [0.01445, 51.50806, 9.0], [0.01431, 51.50804, 10.2], [0.01366, 51.508807, 11.5], [0.01301, 51.509575, 11.5], [0.01236, 51.510342, 9.1], [0.01171, 51.51111, 6.2], [0.01142, 51.51143, 5.7], [0.01136, 51.5116, 5.2], [0.01127, 51.51171, 4.9], [0.01083, 51.51221, 4.2], [0.01068, 51.51231, 4.2], [0.01038, 51.51262, 4.2], [0.00999, 51.51314, 4.2], [0.009546, 51.51368, 4.4], [0.009103, 51.51422, 4.7], [0.00866, 51.51476, 5.1], [0.00854, 51.51491, 5.2], [0.00854, 51.51501, 5.3], [0.00848, 51.51515, 5.4], [0.00845, 51.51533, 5.5], [0.00839, 51.51545, 5.7], [0.00833, 51.51556, 5.7], [0.0082, 51.51565, 5.7], [0.00825, 51.51576, 5.4], [0.00857, 51.51595, 4.7], [0.00864, 51.51603, 4.7], [0.009694, 51.516495, 3.8], [0.010749, 51.51696, 3.6], [0.011804, 51.517425, 3.5], [0.01286, 51.51789, 3.3], [0.01344, 51.51816, 3.2], [0.01338, 51.51826, 3.3], [0.0129, 51.51865, 3.5], [0.01265, 51.5189, 3.5], [0.01237, 51.51932, 3.4], [0.01209, 51.51974, 3.1], [0.01209, 51.51982, 3.1], [0.012219, 51.52036, 3.0], [0.01235, 51.5209, 2.9], [0.01237, 51.52102, 2.9], [0.012343, 51.52164, 2.6], [0.012316, 51.52226, 2.7], [0.01229, 51.52288, 3.0], [0.0123, 51.52344, 3.4], [0.01235, 51.52369, 3.5], [0.01243, 51.52384, 3.5], [0.01272, 51.52423, 3.4], [0.01299, 51.52446, 3.2], [0.01343, 51.52476, 3.1], [0.01411, 51.52507, 3.1], [0.01496, 51.52522, 3.1], [0.015916, 51.525343, 3.0], [0.016873, 51.525466, 3.1], [0.01783, 51.52559, 3.9], [0.01796, 51.52563, 3.9], [0.01801, 51.52567, 3.9], [0.01802, 51.52571, 4.3], [0.01783, 51.526405, 5.8], [0.01764, 51.5271, 8.2], [0.01756, 51.5275, 9.4], [0.01756, 51.52754, 9.4], [0.017844, 51.528145, 8.9], [0.01813, 51.52875, 6.9], [0.018429, 51.52933, 5.6], [0.018729, 51.52991, 5.5], [0.01903, 51.53049, 5.8], [0.01928, 51.53104, 6.7], [0.01848, 51.5312, 8.4], [0.01811, 51.53132, 9.3], [0.017315, 51.53165, 9.1], [0.01652, 51.53198, 7.3], [0.01553, 51.53236, 5.5], [0.01526, 51.5325, 5.3], [0.01436, 51.53308, 5.2], [0.01407, 51.53324, 5.2], [0.01388, 51.53333, 5.2], [0.01332, 51.53356, 5.2], [0.012165, 51.533925, 5.0], [0.01101, 51.53429, 4.9], [0.010335, 51.534555, 5.1], [0.00966, 51.53482, 5.4], [0.0093, 51.53494, 5.4], [0.00899, 51.5351, 5.5], [0.00871, 51.53521, 5.5], [0.0085, 51.53525, 5.7], [0.00756, 51.53565, 6.0], [0.00738, 51.53569, 6.2], [0.00729, 51.53575, 6.2], [0.00724, 51.53585, 6.2], [0.007, 51.53605, 6.4], [0.00677, 51.53631, 6.6], [0.006225, 51.537125, 7.3], [0.00568, 51.53794, 7.7], [0.00522, 51.53837, 8.0], [0.00476, 51.53878, 8.7], [0.004, 51.53938, 9.1], [0.00361, 51.53963, 9.1], [0.00304, 51.53993, 9.0], [0.0028, 51.54008, 8.9], [0.00277, 51.54012, 8.9], [0.00274, 51.5402, 8.7], [0.00262, 51.5406, 8.1], [0.00258, 51.54068, 8.1], [0.00229, 51.54096, 8.0], [0.00216, 51.54106, 7.8], [0.00105, 51.54056, 7.2], [0.0006, 51.54026, 7.2], [0.00034, 51.54005, 7.3], [4e-05, 51.53976, 7.4], [-0.0001, 51.53955, 7.3], [-0.0002, 51.53952, 7.4], [-0.00031, 51.5394, 7.4], [-0.00046, 51.53936, 7.4], [-0.00084, 51.53901, 7.8], [-0.00154, 51.53844, 8.1], [-0.00225, 51.53789, 7.7], [-0.00249, 51.53768, 7.3], [-0.003222, 51.537135, 5.3], [-0.003955, 51.53659, 5.3], [-0.004687, 51.536045, 6.3], [-0.00542, 51.5355, 6.4], [-0.00548, 51.53547, 6.4], [-0.00562, 51.5353, 6.9], [-0.00552, 51.53519, 7.0], [-0.006035, 51.53479, 7.9], [-0.00655, 51.53439, 9.3], [-0.00676, 51.5342, 8.6], [-0.00683, 51.53423, 8.6], [-0.00689, 51.53417, 8.7], [-0.00695, 51.5342, 8.7], [-0.00712, 51.53407, 8.7], [-0.00716, 51.53402, 8.7], [-0.00772, 51.53365, 8.4], [-0.00801, 51.5334, 8.3], [-0.0086, 51.53296, 8.0], [-0.00943, 51.53236, 7.1], [-0.00958, 51.53223, 7.1], [-0.01021, 51.53179, 6.4], [-0.0103, 51.53167, 6.2], [-0.011, 51.53119, 5.8], [-0.01147, 51.5309, 6.4], [-0.01258, 51.53034, 10.5], [-0.01368, 51.52989, 14.7], [-0.01441, 51.52961, 14.8], [-0.01492, 51.52943, 13.4], [-0.01588, 51.52916, 10.9], [-0.01601, 51.52918, 10.6], [-0.01593, 51.52923, 10.6], [-0.01488, 51.52953, 8.7], [-0.01462, 51.52963, 8.6], [-0.01451, 51.52968, 8.6], [-0.01452, 51.52973, 8.6], [-0.01466, 51.52984, 8.4], [-0.01518, 51.53009, 8.4], [-0.015869, 51.53034, 8.1], [-0.01656, 51.53059, 8.1], [-0.01738, 51.53094, 7.5], [-0.01777, 51.53115, 7.0], [-0.018434, 51.53153, 6.5], [-0.0191, 51.53191, 6.4], [-0.020167, 51.532495, 7.7], [-0.021234, 51.53308, 6.1], [-0.022302, 51.533665, 3.5], [-0.02337, 51.53425, 7.2], [-0.02405, 51.53466, 9.0], [-0.02449, 51.53499, 9.3], [-0.02474, 51.53521, 9.6], [-0.02511, 51.53562, 9.6], [-0.02531, 51.53587, 10.0], [-0.02558, 51.53637, 10.0], [-0.02579, 51.53714, 11.6], [-0.0259, 51.53783, 13.0], [-0.02603, 51.53852, 14.4], [-0.026226, 51.53923, 12.5], [-0.026423, 51.53994, 13.5], [-0.02662, 51.54065, 11.1], [-0.02678, 51.54101, 9.1], [-0.02698, 51.54134, 8.3], [-0.02721, 51.54164, 7.8], [-0.02747, 51.54193, 7.6], [-0.02774, 51.54217, 7.3], [-0.02804, 51.54239, 7.1], [-0.02847, 51.5427, 7.1], [-0.028994, 51.54304, 5.8], [-0.02952, 51.54338, 6.7], [-0.030274, 51.54379, 9.3], [-0.03103, 51.5442, 11.2], [-0.03193, 51.54477, 14.1], [-0.03293, 51.54529, 11.7], [-0.03318, 51.54546, 10.0], [-0.03325, 51.54554, 9.6], [-0.03336, 51.54572, 8.7], [-0.03341, 51.54585, 8.4], [-0.03341, 51.54607, 8.4], [-0.03341, 51.54608, 8.4], [-0.03335, 51.54628, 7.9], [-0.03328, 51.54636, 7.9], [-0.03313, 51.5465, 7.3], [-0.03244, 51.54703, 7.3], [-0.03211, 51.54725, 8.0], [-0.03171, 51.54747, 8.6], [-0.03111, 51.54775, 10.4], [-0.0306, 51.54794, 11.0], [-0.02976, 51.54816, 11.7], [-0.02941, 51.54823, 12.1], [-0.02813, 51.54838, 13.9], [-0.02765, 51.54846, 14.2], [-0.02698, 51.54861, 14.5], [-0.02648, 51.54876, 14.4], [-0.02573, 51.54903, 12.6], [-0.02525, 51.54924, 10.2], [-0.02465, 51.54957, 7.9], [-0.023815, 51.55007, 7.3], [-0.02298, 51.55057, 9.1], [-0.02243, 51.55085, 12.0], [-0.02175, 51.5511, 13.7], [-0.02081, 51.55133, 14.8], [-0.02017, 51.55142, 14.9], [-0.01957, 51.55147, 14.5], [-0.01835, 51.55152, 11.7], [-0.01713, 51.55157, 7.5], [-0.016385, 51.551635, 6.7], [-0.01564, 51.5517, 6.8], [-0.01545, 51.55173, 6.9], [-0.01502, 51.55178, 7.0], [-0.01382, 51.55196, 7.3], [-0.01263, 51.55217, 8.5], [-0.01186, 51.55236, 10.1], [-0.01135, 51.55251, 11.9], [-0.01071, 51.55274, 13.9], [-0.01016, 51.553, 15.0], [-0.00951, 51.55338, 15.6], [-0.00893, 51.55383, 13.6], [-0.00851, 51.55424, 10.9], [-0.00822, 51.55456, 9.5], [-0.0077, 51.55523, 6.9], [-0.0074, 51.55556, 6.9], [-0.00693, 51.556, 7.5], [-0.00612, 51.55665, 8.2], [-0.00538, 51.55716, 8.8], [-0.00451, 51.5577, 9.5], [-0.00378, 51.55813, 10.5], [-0.00305, 51.55856, 11.8], [-0.00218, 51.559123, 13.5], [-0.00131, 51.559686, 15.3], [-0.00044, 51.56025, 14.3], [0.000474, 51.560865, 13.6], [0.00139, 51.56148, 15.2], [0.001919, 51.56188, 16.3], [0.00245, 51.56228, 17.0], [0.003199, 51.56293, 17.3], [0.00395, 51.56358, 17.9], [0.004429, 51.5641, 18.1], [0.00491, 51.56462, 18.5], [0.00552, 51.56534, 20.0], [0.005959, 51.56596, 20.7], [0.0064, 51.56658, 20.3], [0.00665, 51.56697, 19.5], [0.006939, 51.56746, 18.2], [0.00723, 51.56795, 16.8], [0.0075, 51.56838, 13.7], [0.008, 51.56905, 12.6], [0.00827, 51.56937, 12.8], [0.0086, 51.56972, 13.7], [0.00918, 51.57027, 17.0], [0.009729, 51.57073, 18.9], [0.01028, 51.57119, 21.1], [0.011124, 51.571755, 26.2], [0.01197, 51.57232, 31.5], [0.01239, 51.57254, 32.5], [0.01259, 51.57262, 33.0], [0.0129, 51.57271, 33.5], [0.01337, 51.57279, 34.0], [0.01377, 51.57283, 34.1], [0.01412, 51.57284, 34.2], [0.01477, 51.57279, 34.4], [0.01526, 51.57269, 34.7], [0.01561, 51.57272, 34.6], [0.01563, 51.57277, 34.6], [0.01573, 51.57285, 34.6], [0.01583, 51.57289, 34.2], [0.01603, 51.57293, 34.2], [0.01615, 51.57293, 34.1], [0.01642, 51.57304, 33.8], [0.01682, 51.57346, 32.8], [0.01728, 51.57405, 33.4], [0.01743, 51.57445, 33.8], [0.01748, 51.57471, 34.2], [0.01746, 51.57543, 34.6], [0.017493, 51.57614, 33.3], [0.017526, 51.57685, 33.5], [0.01756, 51.57756, 33.2], [0.01759, 51.57767, 33.2], [0.0178, 51.57813, 32.5], [0.01784, 51.57825, 32.5], [0.01785, 51.57853, 32.3], [0.01775, 51.57907, 32.0], [0.01777, 51.57925, 31.9], [0.01785, 51.57942, 31.9], [0.01807, 51.57973, 31.4], [0.01855, 51.58013, 31.0], [0.01926, 51.58067, 29.5], [0.01967, 51.58103, 28.0], [0.01985, 51.58122, 27.3], [0.02011, 51.58162, 26.2], [0.02011, 51.5817, 26.3], [0.02014, 51.58178, 26.3], [0.02026, 51.58193, 25.2], [0.02032, 51.58207, 25.0], [0.02031, 51.58239, 24.9], [0.02027, 51.58243, 24.9], [0.02024, 51.58282, 25.5], [0.02029, 51.58298, 26.1], [0.02028, 51.58307, 26.1], [0.02023, 51.58319, 26.1], [0.02027, 51.5833, 26.9], [0.02028, 51.58339, 26.9], [0.02025, 51.58352, 27.4], [0.02034, 51.58394, 28.2], [0.02039, 51.58416, 28.7], [0.02054, 51.5846, 29.9], [0.020809, 51.585325, 31.7], [0.02108, 51.58605, 32.6], [0.021259, 51.58676, 33.3], [0.02144, 51.58747, 33.8], [0.021639, 51.58804, 34.1], [0.02184, 51.58861, 34.9], [0.02203, 51.58921, 35.3], [0.02215, 51.58978, 36.3], [0.022289, 51.59054, 37.7], [0.02243, 51.5913, 39.1], [0.02248, 51.59163, 39.5], [0.02249, 51.59186, 40.2], [0.02243, 51.59261, 41.9], [0.02242, 51.59327, 42.8], [0.02238, 51.59369, 43.5], [0.02226, 51.59457, 44.7], [0.02221, 51.59461, 44.7], [0.02216, 51.59482, 45.1], [0.02217, 51.59486, 45.1], [0.02221, 51.5949, 45.1], [0.02219, 51.595, 45.1], [0.02211, 51.59503, 45.2], [0.02205, 51.59523, 45.3], [0.02194, 51.5955, 45.7], [0.02198, 51.59555, 45.8], [0.02194, 51.59564, 46.0], [0.02199, 51.59569, 45.3], [0.02197, 51.59576, 45.1], [0.02204, 51.59577, 45.1], [0.02181, 51.59627, 46.0], [0.02182, 51.59633, 46.3], [0.02179, 51.59654, 46.9], [0.02168, 51.59672, 47.3], [0.02161, 51.59671, 47.3], [0.02155, 51.59683, 47.6], [0.02145, 51.59688, 47.9], [0.02144, 51.59699, 48.4], [0.02129, 51.59733, 48.8], [0.02116, 51.59753, 49.4], [0.02084, 51.598285, 51.0], [0.02052, 51.59904, 52.2], [0.02022, 51.59967, 52.2], [0.01981, 51.60037, 51.5], [0.01955, 51.60085, 50.8], [0.01937, 51.60135, 50.7], [0.0193, 51.60176, 51.2], [0.01931, 51.6024, 53.9], [0.01928, 51.60265, 54.6], [0.01918, 51.60299, 56.0], [0.01902, 51.60372, 57.9], [0.01888, 51.60421, 59.1], [0.01874, 51.6047, 59.5], [0.01864, 51.60475, 60.0], [0.01853, 51.60483, 60.0], [0.01837, 51.60482, 60.3], [0.01813, 51.60486, 61.5], [0.01804, 51.60491, 61.5], [0.01796, 51.60501, 61.5], [0.01795, 51.60508, 61.9], [0.01796, 51.60513, 61.9], [0.01802, 51.60524, 61.9], [0.018449, 51.605755, 62.3], [0.01888, 51.60627, 62.8], [0.019344, 51.606675, 63.3], [0.01981, 51.60708, 63.8], [0.01979, 51.60716, 64.1], [0.0199, 51.60731, 64.2], [0.01992, 51.60734, 64.2], [0.02002, 51.60737, 64.4], [0.02059, 51.60812, 64.9], [0.02095, 51.60862, 65.4], [0.02093, 51.6087, 65.4], [0.02102, 51.60883, 65.5], [0.02113, 51.60886, 65.5], [0.02128, 51.60911, 65.7], [0.021804, 51.609835, 66.2], [0.02233, 51.61056, 66.6], [0.02289, 51.6112, 67.5], [0.02343, 51.61194, 68.7], [0.023714, 51.61237, 69.2], [0.024, 51.6128, 70.1], [0.02446, 51.61363, 71.9], [0.024679, 51.61407, 72.9], [0.0249, 51.61451, 74.5], [0.02488, 51.61459, 74.5], [0.025104, 51.61516, 75.1], [0.02533, 51.61573, 75.0], [0.0257, 51.61655, 73.7], [0.025944, 51.617015, 71.7], [0.02619, 51.61748, 70.8], [0.02626, 51.6175, 70.8], [0.02627, 51.61753, 70.8], [0.02631, 51.6176, 70.4], [0.02629, 51.61766, 70.4], [0.02655, 51.6182, 70.0], [0.02674, 51.61856, 69.8], [0.027, 51.61899, 69.9], [0.02728, 51.61954, 70.2], [0.02753, 51.62013, 70.8], [0.02767, 51.62064, 71.7], [0.02772, 51.62088, 73.0], [0.02777, 51.62091, 73.0], [0.027985, 51.621654, 74.5], [0.028201, 51.622398, 75.4], [0.028417, 51.623142, 75.2], [0.028633, 51.623886, 74.1], [0.02885, 51.62463, 73.0], [0.029004, 51.625195, 72.4], [0.02916, 51.62576, 71.3], [0.02939, 51.62639, 70.8], [0.02956, 51.62695, 70.4], [0.02973, 51.6274, 70.0], [0.030024, 51.628265, 69.6], [0.03032, 51.62913, 68.8], [0.030595, 51.629922, 67.7], [0.030871, 51.630715, 66.4], [0.031147, 51.631508, 66.5], [0.031422, 51.632301, 66.8], [0.031698, 51.633094, 65.7], [0.031974, 51.633887, 64.7], [0.03225, 51.63468, 63.5], [0.032499, 51.63546, 61.9], [0.03275, 51.63624, 60.9], [0.032974, 51.636875, 60.5], [0.0332, 51.63751, 60.7], [0.03326, 51.6379, 60.4], [0.033424, 51.638545, 60.1], [0.03359, 51.63919, 59.5], [0.03367, 51.6396, 59.3], [0.03374, 51.63974, 59.0], [0.0338, 51.6402, 58.9], [0.03389, 51.64065, 58.2], [0.03412, 51.64153, 56.9], [0.03436, 51.64208, 56.4], [0.03462, 51.64274, 55.4], [0.034903, 51.643513, 55.0], [0.035186, 51.644286, 54.3], [0.035469, 51.64506, 54.1], [0.035753, 51.645833, 54.4], [0.036036, 51.646606, 54.6], [0.03632, 51.64738, 55.0], [0.036599, 51.648175, 55.4], [0.03688, 51.64897, 56.4], [0.037059, 51.649435, 57.6], [0.03724, 51.6499, 58.3], [0.037499, 51.650605, 60.2], [0.037759, 51.65131, 63.3], [0.038019, 51.652015, 65.0], [0.03828, 51.65272, 67.4], [0.038496, 51.653323, 71.0], [0.038713, 51.653926, 72.7], [0.03893, 51.65453, 74.8], [0.03924, 51.65515, 76.4], [0.03928, 51.65541, 76.8], [0.03925, 51.65555, 77.1], [0.03926, 51.65564, 77.1], [0.0393, 51.65569, 77.1], [0.03949, 51.65575, 77.2], [0.03975, 51.6559, 77.4], [0.03996, 51.6562, 77.8], [0.040567, 51.657007, 81.2], [0.041174, 51.657815, 83.0], [0.041782, 51.658622, 84.6], [0.04239, 51.65943, 86.9], [0.042804, 51.660005, 89.0], [0.04322, 51.66058, 90.5], [0.043749, 51.6612, 91.9], [0.044279, 51.66182, 93.2], [0.044809, 51.66244, 94.3], [0.04534, 51.66306, 96.4], [0.045739, 51.66347, 97.2], [0.04614, 51.66388, 97.7], [0.04661, 51.66429, 97.7], [0.04662, 51.6643, 97.7], [0.047399, 51.66482, 97.3], [0.04818, 51.66534, 97.1], [0.049077, 51.665951, 97.0], [0.049974, 51.666562, 97.0], [0.050871, 51.667174, 97.1], [0.051768, 51.667785, 96.5], [0.052665, 51.668397, 95.8], [0.053562, 51.669008, 95.9], [0.05446, 51.66962, 97.8], [0.055417, 51.67027, 100.3], [0.056374, 51.67092, 102.6], [0.057332, 51.67157, 105.6], [0.058289, 51.67222, 108.1], [0.059247, 51.67287, 110.3], [0.060204, 51.67352, 112.3], [0.061162, 51.67417, 113.2], [0.06212, 51.67482, 113.8], [0.0622, 51.67488, 113.8], [0.06225, 51.67495, 113.7], [0.06226, 51.67501, 113.7], [0.06224, 51.67508, 113.7], [0.06227, 51.67518, 113.7], [0.06249, 51.67526, 113.6], [0.06286, 51.67534, 113.7], [0.06304, 51.67543, 113.7], [0.06342, 51.67571, 113.8], [0.064103, 51.67618, 113.9], [0.064786, 51.67665, 114.3], [0.06547, 51.67712, 114.8], [0.06603, 51.67747, 115.0], [0.06644, 51.6777, 115.0], [0.06741, 51.67818, 114.9], [0.068079, 51.678465, 114.7], [0.06875, 51.67875, 114.8], [0.06939, 51.67907, 115.1], [0.070364, 51.679635, 115.6], [0.07134, 51.6802, 116.2], [0.07218, 51.68074, 116.9], [0.072604, 51.68112, 117.2], [0.07303, 51.6815, 117.9], [0.07383, 51.68213, 118.0], [0.07429, 51.68243, 118.1], [0.074934, 51.68278, 118.2], [0.07558, 51.68313, 118.0], [0.07588, 51.68328, 117.8], [0.07675, 51.68375, 117.6], [0.07746, 51.6841, 117.3], [0.078204, 51.68444, 117.0], [0.07895, 51.68478, 116.8], [0.079564, 51.685025, 116.4], [0.08018, 51.68527, 116.0], [0.081, 51.68566, 115.2], [0.08145, 51.68585, 113.9], [0.08233, 51.6862, 112.8], [0.083314, 51.68653, 113.2], [0.0843, 51.68686, 113.8], [0.085279, 51.687235, 113.7], [0.08626, 51.68761, 113.4], [0.087349, 51.68809, 112.7], [0.08844, 51.68857, 112.6], [0.089436, 51.68902, 112.5], [0.090433, 51.68947, 112.8], [0.09143, 51.68992, 112.8], [0.092029, 51.69021, 112.2], [0.09263, 51.6905, 111.5], [0.093454, 51.690825, 111.6], [0.09428, 51.69115, 112.0], [0.095399, 51.691535, 112.4], [0.096519, 51.69192, 112.5], [0.097639, 51.692305, 112.1], [0.09876, 51.69269, 111.7], [0.09997, 51.69312, 111.1], [0.10023, 51.69324, 111.1], [0.1004, 51.69328, 111.1], [0.101224, 51.69357, 110.9], [0.10205, 51.69386, 110.9], [0.10267, 51.69412, 111.0], [0.10324, 51.69443, 111.0], [0.103764, 51.694755, 110.5], [0.10429, 51.69508, 110.4], [0.10469, 51.69529, 110.3], [0.10527, 51.69556, 109.7], [0.106169, 51.69593, 109.2], [0.10707, 51.6963, 108.5], [0.107934, 51.69669, 107.9], [0.1088, 51.69708, 107.4], [0.10958, 51.6975, 106.9], [0.11005, 51.69783, 106.7], [0.11016, 51.69794, 106.6], [0.11023, 51.69799, 106.6], [0.11026, 51.69806, 106.5], [0.1105, 51.69823, 106.5], [0.11058, 51.69832, 106.5], [0.1109, 51.69861, 107.1], [0.1116, 51.6992, 107.9], [0.11238, 51.69982, 108.8], [0.11297, 51.70023, 108.7], [0.11359, 51.70066, 108.1], [0.114, 51.70091, 107.4], [0.11464, 51.70124, 104.6], [0.11546, 51.70172, 103.0], [0.11636, 51.7024, 103.2], [0.11658, 51.70263, 103.6], [0.11691, 51.7029, 104.9], [0.117619, 51.70368, 108.3], [0.11833, 51.70446, 112.7], [0.11875, 51.70488, 113.3], [0.11887, 51.70506, 113.2], [0.11894, 51.70514, 113.3], [0.11904, 51.70521, 113.7], [0.11914, 51.70518, 113.7], [0.11927, 51.70518, 113.7], [0.11972, 51.70528, 113.9], [0.120974, 51.705625, 114.3], [0.12223, 51.70597, 114.5], [0.123264, 51.706265, 114.0], [0.1243, 51.70656, 112.9], [0.125624, 51.706922, 111.2], [0.126949, 51.707285, 108.2], [0.128274, 51.707647, 106.2], [0.1296, 51.70801, 103.1], [0.1301, 51.70818, 101.2], [0.131224, 51.70862, 97.1], [0.13235, 51.70906, 95.7], [0.13324, 51.70939, 96.5], [0.134524, 51.709755, 97.3], [0.13581, 51.71012, 98.4], [0.13627, 51.71024, 100.2], [0.13722, 51.71045, 101.8], [0.13794, 51.71063, 102.7], [0.13825, 51.71073, 103.0], [0.13855, 51.71085, 103.1], [0.139464, 51.71126, 102.7], [0.14038, 51.71167, 101.9], [0.141069, 51.711955, 100.2], [0.14176, 51.71224, 99.2], [0.14208, 51.71235, 98.2], [0.14278, 51.71252, 97.6], [0.1432, 51.71259, 97.1], [0.144119, 51.71271, 95.6], [0.14504, 51.71283, 94.8], [0.14599, 51.71292, 95.6], [0.14714, 51.71297, 98.3], [0.14846, 51.713, 100.0], [0.14916, 51.71298, 100.4], [0.150275, 51.71291, 100.2], [0.15139, 51.71284, 99.3], [0.15249, 51.71287, 98.8], [0.153604, 51.712925, 97.7], [0.15472, 51.71298, 95.2], [0.15523, 51.71298, 94.7], [0.1555, 51.71296, 94.5], [0.156235, 51.71284, 93.5], [0.15697, 51.71272, 91.0], [0.1577, 51.71263, 89.7], [0.15843, 51.71254, 87.9], [0.15866, 51.71252, 87.3], [0.15918, 51.71251, 86.8], [0.16007, 51.71259, 85.9], [0.161174, 51.712745, 84.5], [0.16228, 51.7129, 83.0], [0.16245, 51.71295, 83.0], [0.16313, 51.71324, 81.8], [0.16369, 51.71353, 81.2], [0.164509, 51.71396, 80.4], [0.16533, 51.71439, 80.0], [0.16572, 51.71465, 79.8], [0.16615, 51.71501, 79.5], [0.1664, 51.71528, 79.1], [0.16652, 51.71543, 79.0], [0.16678, 51.71592, 78.6], [0.1669, 51.71608, 78.5], [0.16709, 51.71624, 78.4], [0.16749, 51.71648, 78.0], [0.16769, 51.71665, 78.0], [0.16783, 51.71686, 78.0], [0.16802, 51.71722, 77.8], [0.16815, 51.71736, 77.9], [0.16831, 51.71746, 78.0], [0.16857, 51.71754, 78.4], [0.169661, 51.71782, 79.5], [0.170753, 51.7181, 81.7], [0.171845, 51.71838, 82.9], [0.172937, 51.71866, 84.6], [0.17403, 51.71894, 85.9], [0.17473, 51.71908, 87.4], [0.17555, 51.71917, 89.0], [0.17609, 51.71928, 89.7], [0.17653, 51.71945, 91.0], [0.17665, 51.71951, 91.4], [0.17685, 51.71963, 92.0], [0.177499, 51.72016, 92.8], [0.17815, 51.72069, 94.1], [0.17856, 51.72105, 95.3], [0.17885, 51.72135, 95.8], [0.17908, 51.72163, 95.8], [0.179514, 51.72219, 95.1], [0.17995, 51.72275, 93.4], [0.18034, 51.72312, 92.2], [0.18078, 51.72347, 90.3], [0.18099, 51.72362, 89.5], [0.18107, 51.72365, 89.5], [0.18137, 51.72393, 88.1], [0.18201, 51.72396, 86.5], [0.18213, 51.72399, 86.5], [0.18286, 51.72399, 84.9], [0.18359, 51.72399, 81.9], [0.184682, 51.724027, 80.0], [0.185774, 51.724065, 79.0], [0.186867, 51.724102, 79.0], [0.18796, 51.72414, 80.1], [0.18854, 51.72414, 81.3], [0.18953, 51.72407, 82.2], [0.19024, 51.72409, 82.1], [0.19125, 51.72417, 81.4], [0.19133, 51.72421, 81.4], [0.19225, 51.72427, 80.8], [0.19239, 51.72426, 80.5], [0.19358, 51.72438, 79.8], [0.19393, 51.72445, 79.4], [0.1942, 51.72453, 79.4], [0.194894, 51.72482, 78.0], [0.19559, 51.72511, 77.7], [0.19587, 51.72519, 77.7], [0.19622, 51.72524, 77.8], [0.197449, 51.72528, 78.4], [0.198679, 51.72532, 79.1], [0.19991, 51.72536, 79.2], [0.20054, 51.72534, 78.6], [0.20087, 51.72529, 78.3], [0.20149, 51.72513, 77.0], [0.202426, 51.724836, 74.9], [0.203363, 51.724543, 71.5], [0.2043, 51.72425, 69.3], [0.20509, 51.72397, 66.2], [0.205855, 51.723655, 64.3], [0.20662, 51.72334, 62.2], [0.207445, 51.72308, 60.3], [0.20827, 51.72282, 57.9], [0.20875, 51.72265, 56.9], [0.2092, 51.72244, 56.2], [0.2102, 51.72193, 54.6], [0.21065, 51.72177, 54.3], [0.21182, 51.72149, 54.3], [0.21299, 51.72121, 54.3], [0.21355, 51.72112, 54.4], [0.21393, 51.72108, 54.6], [0.21474, 51.72103, 54.4], [0.21555, 51.72098, 53.2], [0.21636, 51.72095, 52.4], [0.217635, 51.720935, 52.4], [0.21891, 51.72092, 52.4], [0.21972, 51.72089, 52.2], [0.22003, 51.72085, 52.2], [0.22032, 51.72078, 52.2], [0.221225, 51.720435, 52.5], [0.22213, 51.72009, 51.7], [0.22238, 51.71996, 51.7], [0.22261, 51.71979, 51.0], [0.22319, 51.71924, 49.8], [0.22342, 51.71905, 49.7], [0.22378, 51.71882, 49.8], [0.224555, 51.71851, 49.6], [0.22533, 51.7182, 49.7], [0.22594, 51.71788, 49.9], [0.22665, 51.71741, 49.9], [0.22689, 51.71721, 49.3], [0.22707, 51.71697, 48.6], [0.22718, 51.7167, 48.4], [0.22728, 51.71625, 48.2], [0.22736, 51.71579, 47.9], [0.22746, 51.71547, 47.9], [0.22754, 51.71533, 47.9], [0.22783, 51.71508, 47.9], [0.22811, 51.71491, 47.9], [0.22856, 51.71474, 48.1], [0.22973, 51.71439, 46.4], [0.23096, 51.714, 45.8], [0.23124, 51.71389, 45.8], [0.23213, 51.71346, 45.6], [0.23254, 51.71335, 45.6], [0.23282, 51.7133, 45.8], [0.23316, 51.71328, 45.8], [0.23427, 51.7133, 45.7], [0.23469, 51.71328, 46.0], [0.23523, 51.7132, 47.5], [0.23587, 51.71305, 48.7], [0.23634, 51.71298, 50.4], [0.23695, 51.71293, 51.8], [0.238202, 51.712902, 55.6], [0.239455, 51.712875, 57.3], [0.240707, 51.712847, 60.5], [0.24196, 51.71282, 62.9], [0.24328, 51.71275, 64.0], [0.24412, 51.71267, 64.6], [0.24449, 51.71271, 64.6], [0.24468, 51.71276, 64.6], [0.24476, 51.71281, 64.7], [0.24494, 51.71303, 64.6], [0.244969, 51.713485, 64.7], [0.245, 51.71394, 64.7], [0.24518, 51.71469, 64.8], [0.24533, 51.71513, 64.6], [0.2455, 51.7154, 64.4], [0.24591, 51.71589, 64.0], [0.24621, 51.71638, 63.2], [0.24636, 51.71659, 63.0], [0.24664, 51.71689, 62.8], [0.24685, 51.71706, 62.6], [0.24738, 51.71736, 62.6], [0.24838, 51.71783, 62.2], [0.24848, 51.71789, 62.2], [0.24885, 51.71819, 61.6], [0.249469, 51.71873, 61.0], [0.25009, 51.71927, 60.3], [0.25068, 51.71984, 59.4], [0.25099, 51.72032, 58.2], [0.251189, 51.7209, 55.7], [0.25139, 51.72148, 54.8], [0.25151, 51.72173, 54.8], [0.25169, 51.72191, 54.9], [0.25187, 51.72202, 54.9], [0.25205, 51.72218, 55.2], [0.25227, 51.72257, 55.9], [0.25249, 51.72279, 57.0], [0.25264, 51.72289, 58.1], [0.25286, 51.72295, 58.1], [0.253, 51.72301, 58.4], [0.25299, 51.72305, 58.4], [0.253, 51.72307, 59.0], [0.25308, 51.72311, 59.0], [0.25318, 51.72321, 59.3], [0.25344, 51.72353, 60.9], [0.25371, 51.72382, 61.5], [0.25404, 51.7244, 63.8], [0.25445, 51.7249, 65.2], [0.25483, 51.72528, 66.0], [0.255259, 51.72592, 67.1], [0.25569, 51.72656, 68.0], [0.25601, 51.72717, 68.5], [0.25654, 51.72793, 68.9], [0.257064, 51.728555, 69.0], [0.25759, 51.72918, 69.4], [0.25783, 51.72954, 69.8], [0.25818, 51.73014, 70.1], [0.25829, 51.73057, 70.2], [0.25841, 51.73079, 70.4], [0.25866, 51.73106, 70.4], [0.25891, 51.73128, 70.3], [0.25908, 51.73137, 70.3], [0.25934, 51.7315, 70.3], [0.260409, 51.73196, 70.0], [0.26148, 51.73242, 69.1], [0.26198, 51.73265, 68.7], [0.26225, 51.73276, 68.1], [0.26271, 51.73299, 67.0], [0.26314, 51.73325, 64.7], [0.26365, 51.73368, 63.0], [0.26407, 51.73408, 61.0], [0.26425, 51.73428, 60.6], [0.26437, 51.73446, 60.2], [0.26459, 51.73486, 59.0], [0.26474, 51.73525, 58.7], [0.264974, 51.735745, 58.7], [0.26521, 51.73624, 59.0], [0.265599, 51.736655, 60.3], [0.26599, 51.73707, 61.4], [0.26675, 51.7378, 61.0], [0.26776, 51.73834, 58.6], [0.26858, 51.7387, 55.5], [0.26935, 51.73896, 54.1], [0.2698, 51.73905, 52.5], [0.27041, 51.73909, 51.4], [0.27186, 51.73908, 48.9], [0.27248, 51.73912, 48.6], [0.27272, 51.7392, 48.7], [0.2731, 51.73937, 48.4], [0.27383, 51.73973, 48.1], [0.27411, 51.73989, 48.1], [0.27444, 51.74014, 48.1], [0.27463, 51.74033, 48.1], [0.27504, 51.7408, 48.2], [0.27524, 51.74108, 48.3], [0.275489, 51.74151, 49.2], [0.27574, 51.74194, 50.0], [0.27611, 51.7425, 51.3], [0.276696, 51.743183, 51.0], [0.277283, 51.743866, 49.5], [0.27787, 51.74455, 48.6], [0.27814, 51.74495, 48.4], [0.27834, 51.74537, 48.5], [0.27835, 51.74577, 48.5], [0.27829, 51.74609, 48.8], [0.278, 51.74686, 50.2], [0.27795, 51.74726, 50.7], [0.27805, 51.74789, 52.1], [0.27808, 51.74797, 52.1], [0.27817, 51.74855, 53.0], [0.278344, 51.749015, 53.4], [0.27852, 51.74948, 54.9], [0.27859, 51.75028, 57.8], [0.27853, 51.75074, 59.2], [0.2784, 51.75119, 62.2], [0.27815, 51.75156, 63.4], [0.27784, 51.75182, 63.6], [0.27729, 51.75205, 63.0], [0.27691, 51.75227, 62.7], [0.2767, 51.75247, 62.7], [0.27665, 51.75262, 63.0], [0.27665, 51.75283, 63.6], [0.27683, 51.7535, 67.7], [0.27707, 51.75411, 69.6], [0.27713, 51.75439, 70.1], [0.27716, 51.7548, 71.9], [0.277234, 51.755325, 73.9], [0.27731, 51.75585, 74.8], [0.2774, 51.75625, 75.4], [0.27744, 51.75659, 75.6], [0.27744, 51.75675, 75.6], [0.2774, 51.75719, 75.9], [0.27734, 51.757645, 76.6], [0.27728, 51.7581, 76.8], [0.27724, 51.758935, 76.7], [0.2772, 51.75977, 76.9], [0.27729, 51.76036, 77.0], [0.2775, 51.76122, 76.6], [0.27779, 51.76191, 76.2], [0.27834, 51.76273, 73.9], [0.27844, 51.76317, 72.3], [0.278514, 51.763625, 69.2], [0.27859, 51.76408, 66.9], [0.278734, 51.764584, 65.9], [0.27888, 51.76509, 67.3], [0.279, 51.76537, 68.3], [0.27922, 51.76571, 69.3], [0.27935, 51.76585, 70.1], [0.27949, 51.76591, 70.5], [0.28008, 51.76608, 71.2], [0.28053, 51.76616, 71.2], [0.28128, 51.76633, 70.7], [0.28178, 51.76647, 70.3], [0.28214, 51.76663, 69.3], [0.28249, 51.76701, 67.3], [0.28298, 51.76773, 64.7], [0.28317, 51.76794, 64.2], [0.28362, 51.76812, 63.3], [0.28474, 51.76836, 63.2], [0.28532, 51.76854, 63.7], [0.28556, 51.76866, 64.0], [0.28573, 51.76877, 64.5], [0.28631, 51.7693, 67.2], [0.28644, 51.76949, 67.9], [0.28649, 51.76973, 68.4], [0.28639, 51.76994, 68.8], [0.28626, 51.77009, 69.0], [0.28603, 51.77029, 69.5], [0.28595, 51.7704, 69.6], [0.2859, 51.77053, 69.6], [0.28588, 51.77075, 69.4], [0.28592, 51.77101, 69.1], [0.286169, 51.771665, 67.0], [0.28642, 51.77232, 63.5], [0.286689, 51.773075, 61.6], [0.28696, 51.77383, 61.0], [0.28724, 51.77447, 61.4], [0.28747, 51.77479, 62.4], [0.28777, 51.7751, 64.7], [0.28848, 51.77562, 67.8], [0.28923, 51.77632, 69.2], [0.28951, 51.77665, 69.4], [0.28969, 51.77696, 69.0], [0.28979, 51.77751, 68.0], [0.28991, 51.77767, 67.7], [0.29011, 51.77782, 67.1], [0.29115, 51.77823, 64.3], [0.29142, 51.77842, 64.3], [0.29153, 51.77859, 63.4], [0.29156, 51.77898, 62.7], [0.29171, 51.77937, 62.0], [0.29197, 51.77994, 60.8], [0.292044, 51.78073, 61.0], [0.29212, 51.78152, 61.6], [0.29221, 51.78175, 61.4], [0.29253, 51.78215, 60.0], [0.29265, 51.78249, 59.4], [0.29265, 51.782994, 59.7], [0.29265, 51.7835, 60.6], [0.29272, 51.78386, 60.7], [0.29285, 51.78459, 61.1], [0.2928, 51.78501, 61.5], [0.29261, 51.78558, 62.6], [0.29251, 51.78598, 63.3], [0.292569, 51.786725, 63.9], [0.29263, 51.78747, 63.5], [0.29266, 51.78766, 63.5], [0.29299, 51.78831, 62.8], [0.29287, 51.78899, 61.1], [0.29282, 51.78935, 60.1], [0.29262, 51.78973, 59.8], [0.29262, 51.7902, 60.4], [0.29272, 51.79084, 62.0], [0.29301, 51.7915, 62.7], [0.29306, 51.79166, 62.6], [0.29352, 51.79165, 62.2], [0.294, 51.79166, 61.8], [0.29435, 51.7917, 61.8], [0.29512, 51.79186, 60.9], [0.29606, 51.79222, 60.5], [0.296866, 51.792583, 60.2], [0.297673, 51.792946, 59.7], [0.29848, 51.79331, 60.4], [0.29869, 51.79348, 60.8], [0.29932, 51.79408, 61.8], [0.29969, 51.79421, 62.1], [0.300904, 51.794465, 65.8], [0.30212, 51.79472, 68.4], [0.30289, 51.79483, 70.1], [0.30359, 51.79485, 71.1], [0.30385, 51.79488, 71.4], [0.3043, 51.79497, 71.7], [0.30464, 51.79508, 72.1], [0.30517, 51.79531, 72.3], [0.30557, 51.79544, 72.4], [0.306776, 51.795676, 72.3], [0.307983, 51.795913, 72.9], [0.30919, 51.79615, 73.5], [0.30991, 51.79624, 73.5], [0.31033, 51.79627, 73.6], [0.31061, 51.79626, 73.7], [0.3109, 51.79621, 73.8], [0.31116, 51.79615, 73.8], [0.31135, 51.79626, 73.8], [0.31149, 51.79647, 73.8], [0.31147, 51.79669, 73.9], [0.31096, 51.79747, 74.0], [0.310615, 51.79792, 74.0], [0.31027, 51.79837, 73.8], [0.309895, 51.798915, 73.2], [0.30952, 51.79946, 72.5], [0.3092, 51.8, 71.9], [0.30906, 51.80031, 71.6], [0.30901, 51.80061, 71.8], [0.308955, 51.801145, 72.9], [0.3089, 51.80168, 73.6], [0.308825, 51.802164, 74.8], [0.30875, 51.80265, 75.5], [0.308525, 51.803325, 76.1], [0.3083, 51.804, 76.4], [0.30807, 51.804435, 76.6], [0.30784, 51.80487, 76.7], [0.307565, 51.80529, 77.0], [0.30729, 51.80571, 77.3], [0.307116, 51.806433, 78.0], [0.306943, 51.807156, 78.2], [0.30677, 51.80788, 77.8], [0.30662, 51.80839, 77.8], [0.30647, 51.8089, 77.8], [0.3065, 51.80928, 78.0], [0.3066, 51.80965, 77.8], [0.30669, 51.80976, 77.8], [0.30705, 51.81043, 78.0], [0.30728, 51.81076, 78.0], [0.307619, 51.81122, 78.1], [0.30796, 51.81168, 78.0], [0.3086, 51.8124, 77.2], [0.309054, 51.812775, 76.7], [0.30951, 51.81315, 76.7], [0.31016, 51.81384, 77.1], [0.310574, 51.814395, 77.2], [0.31099, 51.81495, 77.3], [0.31151, 51.81575, 77.4], [0.31188, 51.81616, 77.4], [0.31221, 51.81645, 77.2], [0.312634, 51.817025, 77.0], [0.31306, 51.8176, 76.6], [0.31371, 51.81838, 74.6], [0.314244, 51.818795, 73.9], [0.31478, 51.81921, 73.1], [0.31539, 51.8199, 71.7], [0.315933, 51.820483, 72.9], [0.316476, 51.821066, 74.1], [0.31702, 51.82165, 75.1], [0.317349, 51.82208, 75.3], [0.31768, 51.82251, 75.6], [0.318394, 51.82328, 76.0], [0.319109, 51.82405, 76.3], [0.319824, 51.82482, 77.1], [0.32054, 51.82559, 78.0], [0.321033, 51.82616, 79.6], [0.321526, 51.82673, 80.3], [0.32202, 51.8273, 81.3], [0.322526, 51.82791, 82.2], [0.323033, 51.82852, 83.0], [0.32354, 51.82913, 84.7], [0.323979, 51.82963, 85.9], [0.32442, 51.83013, 87.0], [0.325029, 51.83087, 87.9], [0.32564, 51.83161, 88.2], [0.32592, 51.83189, 88.1], [0.32624, 51.83219, 88.0], [0.32659, 51.83259, 88.1], [0.326914, 51.833005, 88.6], [0.32724, 51.83342, 88.7], [0.327829, 51.834102, 88.9], [0.328419, 51.834785, 88.6], [0.329009, 51.835467, 88.2], [0.3296, 51.83615, 87.6], [0.330056, 51.836723, 87.2], [0.330513, 51.837296, 86.6], [0.33097, 51.83787, 85.7], [0.331609, 51.838585, 85.3], [0.33225, 51.8393, 83.8], [0.33293, 51.83998, 82.4], [0.333254, 51.840415, 80.8], [0.33358, 51.84085, 80.1], [0.334224, 51.8416, 78.3], [0.33487, 51.84235, 76.9], [0.33551, 51.84306, 76.0], [0.336124, 51.843695, 76.3], [0.33674, 51.84433, 76.8], [0.337214, 51.844905, 78.5], [0.33769, 51.84548, 79.0], [0.338339, 51.846228, 80.0], [0.338989, 51.846976, 81.5], [0.339639, 51.847724, 81.6], [0.340289, 51.848472, 82.2], [0.34094, 51.84922, 83.6], [0.34152, 51.84993, 84.1], [0.34191, 51.85033, 84.0], [0.34224, 51.85072, 84.0], [0.342669, 51.85126, 84.9], [0.3431, 51.8518, 85.0], [0.3437, 51.85242, 85.5], [0.344239, 51.852996, 85.8], [0.344779, 51.853573, 87.1], [0.34532, 51.85415, 88.1], [0.34564, 51.85451, 89.4], [0.34613, 51.85517, 90.5], [0.34656, 51.85571, 90.9], [0.347234, 51.856405, 90.7], [0.34791, 51.8571, 89.5], [0.348289, 51.85756, 88.4], [0.34867, 51.85802, 86.4], [0.349079, 51.8585, 83.8], [0.34949, 51.85898, 82.0], [0.34972, 51.85919, 81.5], [0.35014, 51.85943, 80.7], [0.35112, 51.85978, 80.0], [0.3515, 51.85996, 79.8], [0.35167, 51.86008, 80.0], [0.35183, 51.86024, 80.3], [0.35235, 51.86099, 83.5], [0.35246, 51.86112, 84.0], [0.3527, 51.86133, 84.1], [0.35286, 51.86144, 84.3], [0.35309, 51.86155, 84.6], [0.35331, 51.86162, 84.7], [0.35448, 51.86181, 82.6], [0.355434, 51.861935, 79.8], [0.35639, 51.86206, 78.5], [0.35679, 51.86209, 78.0], [0.35724, 51.86207, 77.6], [0.35794, 51.86203, 75.8], [0.35856, 51.86192, 73.0], [0.35902, 51.86182, 72.5], [0.35934, 51.86183, 72.4], [0.35969, 51.8619, 71.9], [0.36057, 51.86225, 71.8], [0.361414, 51.862665, 72.6], [0.36226, 51.86308, 73.7], [0.36271, 51.86328, 73.2], [0.36342, 51.86349, 72.0], [0.36387, 51.86357, 71.4], [0.364714, 51.863625, 70.7], [0.36556, 51.86368, 70.5], [0.3662, 51.86374, 70.3], [0.36656, 51.86371, 70.1], [0.36681, 51.86374, 69.8], [0.36693, 51.86378, 69.8], [0.36701, 51.86376, 69.8], [0.36737, 51.86383, 69.1], [0.36838, 51.86396, 67.4], [0.36868, 51.86404, 66.7], [0.36883, 51.86413, 65.9], [0.36921, 51.8645, 64.6], [0.3694, 51.86463, 63.5], [0.36987, 51.8649, 62.8], [0.37009, 51.86506, 61.7], [0.37043, 51.86538, 58.9], [0.3705, 51.86541, 58.9], [0.37037, 51.86557, 58.8], [0.36971, 51.86609, 56.3], [0.36914, 51.86645, 56.0], [0.368535, 51.8668, 56.5], [0.36793, 51.86715, 59.6], [0.36736, 51.86753, 62.4], [0.36716, 51.8677, 63.3], [0.366565, 51.868345, 66.4], [0.36597, 51.86899, 68.8], [0.36581, 51.86928, 69.1], [0.36574, 51.86952, 69.8], [0.36571, 51.86966, 70.6], [0.36576, 51.86977, 70.7], [0.36583, 51.86975, 70.7], [0.36584, 51.86977, 70.7], [0.36594, 51.86981, 70.8], [0.36593, 51.86985, 70.8], [0.366834, 51.870135, 69.3], [0.36774, 51.87042, 66.0], [0.368859, 51.870915, 60.8], [0.36998, 51.87141, 54.9], [0.370614, 51.87165, 52.0], [0.37125, 51.87189, 49.8], [0.37235, 51.87228, 50.3], [0.3735, 51.87275, 50.1], [0.37404, 51.87288, 50.2], [0.37435, 51.87293, 50.4], [0.37482, 51.87297, 51.0], [0.37526, 51.87298, 52.0], [0.37556, 51.87295, 52.0], [0.37578, 51.87289, 52.5], [0.37613, 51.87271, 53.9], [0.37615, 51.87264, 54.0], [0.37631, 51.87249, 53.9], [0.37691, 51.87274, 54.3], [0.37763, 51.87297, 55.7], [0.37801, 51.87306, 56.6], [0.37891, 51.87319, 57.7], [0.379774, 51.87329, 59.7], [0.38064, 51.87339, 62.8], [0.381857, 51.87349, 67.3], [0.383074, 51.87359, 70.8], [0.384292, 51.87369, 75.2], [0.38551, 51.87379, 78.7], [0.386504, 51.873825, 79.7], [0.3875, 51.87386, 80.9], [0.388649, 51.873925, 82.3], [0.3898, 51.87399, 84.9], [0.3905, 51.87402, 86.5], [0.391903, 51.874113, 87.9], [0.393306, 51.874206, 88.4], [0.394709, 51.8743, 88.3], [0.396113, 51.874393, 87.9], [0.397516, 51.874486, 87.5], [0.398919, 51.87458, 86.7], [0.400323, 51.874673, 86.4], [0.401726, 51.874766, 86.3], [0.40313, 51.87486, 86.7], [0.40449, 51.87498, 86.5], [0.405593, 51.875056, 86.4], [0.406696, 51.875133, 85.6], [0.4078, 51.87521, 85.0], [0.409121, 51.875328, 83.9], [0.410442, 51.875447, 81.5], [0.411763, 51.875566, 75.9], [0.413084, 51.875685, 70.4], [0.414406, 51.875803, 67.1], [0.415727, 51.875922, 65.6], [0.417048, 51.876041, 65.0], [0.41837, 51.87616, 64.4], [0.419544, 51.876195, 62.4], [0.420719, 51.87623, 59.8], [0.421894, 51.876265, 57.1], [0.42307, 51.8763, 52.8], [0.424229, 51.876365, 49.5], [0.42539, 51.87643, 48.7], [0.426364, 51.876505, 48.8], [0.42734, 51.87658, 49.0], [0.42869, 51.87671, 50.9], [0.429826, 51.87685, 56.8], [0.430963, 51.87699, 62.3], [0.4321, 51.87713, 66.1], [0.433366, 51.87727, 70.3], [0.434633, 51.87741, 72.9], [0.4359, 51.87755, 75.2], [0.437029, 51.877665, 76.8], [0.43816, 51.87778, 78.5], [0.439396, 51.877885, 79.2], [0.440633, 51.87799, 79.7], [0.441869, 51.878095, 80.2], [0.443106, 51.8782, 80.6], [0.444343, 51.878305, 81.2], [0.44558, 51.87841, 81.6], [0.44679, 51.87855, 81.5], [0.447872, 51.878702, 80.4], [0.448954, 51.878855, 79.5], [0.450037, 51.879007, 78.7], [0.45112, 51.87916, 78.2], [0.452449, 51.879415, 77.6], [0.45378, 51.87967, 76.9], [0.45462, 51.8798, 76.4], [0.4552, 51.87986, 76.0], [0.45616, 51.8799, 75.6], [0.45695, 51.87989, 75.0], [0.45754, 51.87983, 75.0], [0.458688, 51.87969, 74.5], [0.459836, 51.87955, 74.0], [0.460984, 51.87941, 73.6], [0.462132, 51.87927, 73.6], [0.46328, 51.87913, 73.4], [0.464343, 51.878993, 72.9], [0.465406, 51.878856, 72.0], [0.46647, 51.87872, 71.2], [0.46773, 51.87863, 71.5], [0.46901, 51.87848, 71.9], [0.4701, 51.878285, 71.8], [0.47119, 51.87809, 71.5], [0.47227, 51.87783, 71.2], [0.47301, 51.87755, 70.6], [0.47423, 51.877065, 70.6], [0.47545, 51.87658, 71.4], [0.4749, 51.87621, 71.9], [0.474234, 51.87597, 73.3], [0.47357, 51.87573, 74.4], [0.47324, 51.87552, 75.7], [0.47307, 51.87539, 77.1], [0.47289, 51.87519, 78.0], [0.47272, 51.87495, 79.4], [0.47249, 51.87453, 80.0], [0.47249, 51.87432, 80.3], [0.47261, 51.87419, 80.3], [0.47254, 51.8741, 80.3], [0.47239, 51.87405, 80.3], [0.47222, 51.87409, 80.1], [0.47213, 51.87416, 80.1], [0.47185, 51.87436, 79.6], [0.47132, 51.87458, 77.2], [0.47042, 51.874995, 74.3], [0.46952, 51.87541, 73.4], [0.468626, 51.875783, 73.1], [0.467733, 51.876156, 72.8], [0.46684, 51.87653, 73.1], [0.4661, 51.87681, 73.1], [0.46536, 51.87709, 72.6], [0.46452, 51.87738, 73.2], [0.46362, 51.87766, 73.6], [0.46325, 51.87774, 73.8], [0.46293, 51.87777, 73.8], [0.46259, 51.87775, 74.3], [0.46205, 51.8776, 74.5], [0.46177, 51.87742, 74.7], [0.46115, 51.87665, 76.3], [0.460889, 51.876075, 77.0], [0.46063, 51.8755, 77.3], [0.46013, 51.87471, 78.5], [0.45979, 51.87436, 79.2], [0.459309, 51.87398, 79.4], [0.45883, 51.8736, 79.2], [0.4585, 51.87326, 78.0], [0.45839, 51.87309, 77.5], [0.45826, 51.87283, 76.9], [0.45793, 51.872, 75.9], [0.45782, 51.87143, 76.4], [0.45787, 51.87117, 76.5], [0.45786, 51.87045, 77.3], [0.45762, 51.8699, 76.9], [0.45708, 51.86953, 75.2], [0.456196, 51.869146, 73.3], [0.455313, 51.868763, 72.9], [0.45443, 51.86838, 75.9], [0.45438, 51.86831, 75.9], [0.454385, 51.867795, 76.3], [0.45439, 51.86728, 74.6], [0.45436, 51.86708, 74.2], [0.4543, 51.86691, 73.3], [0.45392, 51.86629, 72.5], [0.45354, 51.86577, 71.9], [0.45329, 51.86536, 71.7], [0.45319, 51.86513, 71.7], [0.45332, 51.86468, 71.7], [0.45345, 51.86423, 71.8], [0.45331, 51.8637, 71.6], [0.45329, 51.86325, 71.6], [0.4533, 51.86318, 71.6], [0.45367, 51.86285, 71.8], [0.45375, 51.86273, 71.8], [0.45306, 51.86264, 71.4], [0.45216, 51.86246, 70.6], [0.45147, 51.86229, 70.0], [0.45122, 51.86222, 69.6], [0.45093, 51.86211, 69.6], [0.450029, 51.86164, 68.7], [0.449129, 51.86117, 68.4], [0.44823, 51.8607, 68.3], [0.447389, 51.8603, 68.4], [0.44655, 51.8599, 68.7], [0.44621, 51.85971, 69.0], [0.44593, 51.8595, 69.1], [0.44565, 51.85933, 69.5], [0.44514, 51.85911, 70.5], [0.44446, 51.85899, 71.4], [0.44426, 51.85899, 71.4], [0.44383, 51.85889, 72.1], [0.44359, 51.85877, 72.4], [0.44342, 51.85866, 72.9], [0.44297, 51.85824, 73.8], [0.44275, 51.8581, 73.8], [0.44253, 51.858, 74.5], [0.44143, 51.85762, 75.5], [0.44076, 51.85749, 75.7], [0.44042, 51.85745, 75.9], [0.43941, 51.85745, 76.1], [0.437993, 51.857286, 75.9], [0.436576, 51.857123, 75.8], [0.43516, 51.85696, 75.1], [0.43478, 51.8569, 74.4], [0.43394, 51.8567, 74.0], [0.43328, 51.85661, 73.1], [0.43334, 51.85652, 72.9], [0.43344, 51.85642, 72.9], [0.43385, 51.855895, 72.9], [0.43426, 51.85537, 72.6], [0.43451, 51.8549, 72.6], [0.43482, 51.85421, 72.4], [0.43521, 51.85371, 72.0], [0.43572, 51.85312, 71.4], [0.43608, 51.85279, 71.3], [0.43675, 51.85228, 71.1], [0.4372, 51.85189, 70.9], [0.43781, 51.851285, 69.9], [0.43842, 51.85068, 69.0], [0.43878, 51.85047, 69.0], [0.43927, 51.85031, 69.0], [0.43955, 51.8501, 68.9], [0.43973, 51.84976, 68.8], [0.44002, 51.84938, 68.5], [0.44006, 51.84918, 68.5], [0.44003, 51.84861, 68.5], [0.43996, 51.84844, 68.5], [0.43976, 51.84815, 68.6], [0.43966, 51.84796, 68.9], [0.43967, 51.84784, 69.0], [0.439845, 51.847395, 69.0], [0.44002, 51.84695, 69.0], [0.44014, 51.84653, 68.8], [0.44027, 51.84577, 68.8], [0.44024, 51.84549, 69.0], [0.440305, 51.844999, 69.4], [0.44037, 51.84451, 69.9], [0.44052, 51.84414, 70.4], [0.44094, 51.843665, 72.1], [0.44136, 51.84319, 72.7], [0.441865, 51.84244, 73.6], [0.44237, 51.84169, 73.8], [0.4425, 51.84143, 73.7], [0.442805, 51.84096, 72.5], [0.44311, 51.84049, 72.0], [0.4436, 51.84, 71.3], [0.444253, 51.839516, 70.7], [0.444906, 51.839033, 69.4], [0.44556, 51.83855, 68.4], [0.4464, 51.83806, 68.0], [0.44705, 51.83757, 67.2], [0.44725, 51.83731, 66.5], [0.44736, 51.83705, 66.0], [0.4474, 51.83668, 64.4], [0.4474, 51.83639, 63.9], [0.44748, 51.8361, 62.4], [0.44789, 51.83531, 60.9], [0.44801, 51.83504, 59.6], [0.44795, 51.83476, 59.0], [0.44794, 51.83449, 58.0], [0.44804, 51.83406, 56.9], [0.44805, 51.83393, 56.2], [0.44803, 51.83376, 55.9], [0.44781, 51.83309, 53.7], [0.44778, 51.83289, 53.2], [0.44803, 51.83231, 50.1], [0.44833, 51.83186, 47.8], [0.44849, 51.83146, 44.5], [0.44878, 51.83104, 40.0], [0.44907, 51.83062, 38.0], [0.44945, 51.83003, 36.5], [0.44951, 51.82981, 36.1], [0.44945, 51.82936, 36.6], [0.44945, 51.8289, 37.6], [0.44948, 51.82873, 38.5], [0.44969, 51.8283, 40.0], [0.44968, 51.8281, 41.9], [0.44965, 51.82798, 41.9], [0.44953, 51.82773, 43.2], [0.449244, 51.82722, 45.9], [0.44896, 51.82671, 47.5], [0.44843, 51.82622, 50.6], [0.44794, 51.82572, 52.3], [0.44741, 51.82526, 53.3], [0.44715, 51.82506, 54.3], [0.4465, 51.82443, 56.3], [0.44609, 51.82414, 57.2], [0.44568, 51.82382, 57.9], [0.44511, 51.82322, 59.6], [0.444859, 51.82274, 61.4], [0.44461, 51.82226, 62.8], [0.44415, 51.82167, 64.5], [0.44411, 51.82152, 64.7], [0.44416, 51.8214, 64.9], [0.44421, 51.82134, 64.9], [0.44443, 51.82121, 65.0], [0.4455, 51.82068, 64.4], [0.44631, 51.82013, 63.4], [0.44633, 51.82007, 63.2], [0.44632, 51.82001, 63.2], [0.44624, 51.81989, 63.2], [0.447225, 51.819555, 61.0], [0.44821, 51.81922, 59.1], [0.449155, 51.818885, 56.9], [0.4501, 51.81855, 54.3], [0.450725, 51.8183, 52.7], [0.45135, 51.81805, 51.5], [0.45195, 51.81776, 50.7], [0.45242, 51.81749, 49.7], [0.45308, 51.81705, 49.2], [0.45378, 51.81649, 48.7], [0.45428, 51.81591, 48.0], [0.454716, 51.815333, 46.9], [0.455153, 51.814756, 45.8], [0.45559, 51.81418, 44.5], [0.45587, 51.8138, 44.0], [0.456, 51.81356, 43.0], [0.456, 51.81352, 42.7], [0.45602, 51.81347, 42.7], [0.45606, 51.81342, 42.7], [0.456, 51.81318, 41.9], [0.45588, 51.81305, 41.2], [0.45573, 51.81243, 39.7], [0.45562, 51.81224, 39.4], [0.45545, 51.81203, 39.6], [0.45499, 51.81167, 40.7], [0.454574, 51.811235, 43.0], [0.45416, 51.8108, 43.7], [0.45396, 51.81031, 43.8], [0.45394, 51.80956, 43.8], [0.45397, 51.80941, 43.8], [0.45415, 51.80898, 44.0], [0.45448, 51.80856, 43.8], [0.45478, 51.8083, 43.7], [0.45524, 51.808, 43.5], [0.45592, 51.8077, 42.4], [0.45642, 51.80736, 40.9], [0.45692, 51.80702, 39.6], [0.45726, 51.80684, 39.0], [0.45746, 51.80671, 38.5], [0.458305, 51.80635, 37.8], [0.45915, 51.80599, 36.8], [0.4595, 51.8058, 37.0], [0.45972, 51.80558, 37.0], [0.46008, 51.80507, 38.4], [0.46049, 51.80435, 38.3], [0.46073, 51.80391, 38.0], [0.4608, 51.80375, 37.9], [0.46084, 51.80356, 37.7], [0.46079, 51.80345, 37.6], [0.46073, 51.80337, 37.6], [0.46057, 51.80321, 37.7], [0.45992, 51.803, 37.8], [0.45913, 51.80285, 38.5], [0.458224, 51.80263, 39.5], [0.45732, 51.80241, 41.1], [0.456224, 51.802265, 43.4], [0.45513, 51.80212, 44.5], [0.45495, 51.80204, 44.8], [0.45486, 51.8019, 44.8], [0.45495, 51.8017, 45.8], [0.4551, 51.80145, 46.2], [0.45524, 51.80112, 46.3], [0.45525, 51.80056, 46.3], [0.455655, 51.799915, 46.4], [0.45606, 51.79927, 46.4], [0.456465, 51.798625, 46.4], [0.45687, 51.79798, 46.7], [0.457, 51.79773, 46.9], [0.45702, 51.79764, 46.9], [0.45706, 51.79684, 45.9], [0.45708, 51.79622, 43.7], [0.4571, 51.7956, 40.1], [0.45709, 51.79542, 38.7], [0.45697, 51.79501, 38.7], [0.45683, 51.79464, 38.8], [0.45649, 51.79408, 39.7], [0.45647, 51.79401, 40.9], [0.4565, 51.79389, 40.9], [0.45657, 51.79378, 41.7], [0.45673, 51.79367, 42.4], [0.45655, 51.79328, 43.9], [0.45647, 51.79305, 44.5], [0.45638, 51.79261, 45.9], [0.45637, 51.79213, 47.3], [0.45641, 51.79177, 47.6], [0.45648, 51.7914, 47.5], [0.45643, 51.79134, 47.5], [0.45626, 51.79122, 47.6], [0.4561, 51.79117, 47.9], [0.455359, 51.79101, 48.1], [0.45462, 51.79085, 49.1], [0.45349, 51.79059, 49.5], [0.45317, 51.79048, 49.7], [0.4521, 51.79006, 49.3], [0.45166, 51.78991, 49.5], [0.45111, 51.78974, 50.2], [0.45006, 51.78945, 52.1], [0.44967, 51.7894, 52.3], [0.44947, 51.78939, 52.6], [0.44904, 51.78941, 53.0], [0.4486, 51.7895, 53.9], [0.4475, 51.7898, 54.9], [0.44714, 51.7898, 55.1], [0.44684, 51.78972, 55.0], [0.44645, 51.7895, 55.1], [0.44607, 51.78933, 55.2], [0.44538, 51.78911, 55.0], [0.44494, 51.78901, 54.1], [0.44443, 51.78893, 53.9], [0.44331, 51.78889, 55.0], [0.44264, 51.78882, 55.6], [0.44241, 51.78877, 55.6], [0.44123, 51.78839, 56.1], [0.44098, 51.78828, 56.3], [0.44039, 51.78799, 56.8], [0.43978, 51.78776, 57.2], [0.43965, 51.78768, 57.1], [0.43957, 51.78757, 56.9], [0.43953, 51.78747, 56.9], [0.43952, 51.78696, 56.1], [0.4395, 51.78677, 55.5], [0.43915, 51.78591, 52.3], [0.43891, 51.78543, 52.2], [0.43833, 51.78464, 55.8], [0.43811, 51.78439, 58.3], [0.43763, 51.78395, 59.7], [0.43732, 51.78361, 60.5], [0.43675, 51.78279, 62.2], [0.43657, 51.78233, 62.5], [0.43642, 51.78188, 62.5], [0.43629, 51.78163, 62.6], [0.43608, 51.78142, 62.5], [0.43583, 51.78122, 62.4], [0.43563, 51.781, 62.0], [0.43548, 51.78088, 61.8], [0.43534, 51.78071, 61.8], [0.43529, 51.78059, 61.6], [0.43523, 51.78006, 61.2], [0.43513, 51.77947, 60.4], [0.43509, 51.77935, 60.4], [0.43479, 51.77888, 60.7], [0.43471, 51.77871, 60.6], [0.43441, 51.77788, 61.6], [0.43432, 51.77772, 61.8], [0.43418, 51.77755, 61.9], [0.4339, 51.77728, 61.8], [0.43315, 51.77673, 61.0], [0.43305, 51.77661, 60.9], [0.43297, 51.77648, 60.8], [0.43293, 51.77577, 60.6], [0.43285, 51.77557, 60.4], [0.43272, 51.77541, 59.7], [0.431944, 51.77469, 57.3], [0.43117, 51.77397, 55.1], [0.43211, 51.773645, 55.1], [0.43305, 51.77332, 56.8], [0.43358, 51.77311, 56.4], [0.43405, 51.77277, 56.1], [0.43413, 51.77263, 55.4], [0.43434, 51.77242, 55.0], [0.43512, 51.77174, 52.6], [0.43583, 51.77137, 52.3], [0.43641, 51.771, 54.0], [0.43711, 51.77066, 54.7], [0.43778, 51.77018, 54.8], [0.43827, 51.76966, 54.2], [0.438575, 51.76917, 54.1], [0.43888, 51.76868, 53.7], [0.43909, 51.76829, 52.7], [0.43931, 51.76807, 52.7], [0.44003, 51.76766, 51.9], [0.44042, 51.76736, 51.7], [0.44069, 51.76708, 50.7], [0.4409, 51.76676, 50.3], [0.44096, 51.76652, 49.9], [0.44097, 51.76633, 49.6], [0.440869, 51.765804, 48.6], [0.44077, 51.76528, 47.5], [0.44078, 51.76452, 46.6], [0.44071, 51.76366, 46.1], [0.44082, 51.76292, 45.9], [0.44088, 51.76267, 45.4], [0.44122, 51.76187, 44.8], [0.44136, 51.76124, 44.6], [0.44155, 51.76074, 44.6], [0.44174, 51.76024, 45.7], [0.44194, 51.75993, 46.4], [0.44211, 51.75973, 46.5], [0.44235, 51.75941, 46.7], [0.44256, 51.75899, 46.4], [0.44259, 51.75881, 46.0], [0.44286, 51.75863, 45.7], [0.44325, 51.75813, 45.4], [0.4429, 51.75806, 44.9], [0.4422, 51.75777, 42.6], [0.44119, 51.75718, 38.9], [0.44096, 51.75698, 38.2], [0.44088, 51.75682, 37.4], [0.44085, 51.75664, 37.0], [0.44085, 51.75652, 36.7], [0.44092, 51.75585, 36.2], [0.44093, 51.75507, 37.2], [0.44097, 51.75493, 37.8], [0.44129, 51.7547, 37.9], [0.44091, 51.75444, 37.0], [0.44059, 51.75412, 37.1], [0.44024, 51.75372, 37.8], [0.44, 51.75341, 38.5], [0.439644, 51.752805, 37.9], [0.43929, 51.7522, 35.6], [0.43922, 51.75202, 35.3], [0.43915, 51.7516, 35.3], [0.43924, 51.7512, 36.0], [0.43946, 51.75054, 37.0], [0.43959, 51.7504, 37.6], [0.440356, 51.7498, 40.7], [0.441123, 51.7492, 41.8], [0.44189, 51.7486, 42.2], [0.44228, 51.74824, 42.0], [0.44253, 51.7479, 41.3], [0.4426, 51.74772, 41.3], [0.443, 51.74714, 40.7], [0.44328, 51.74667, 40.4], [0.44352, 51.74621, 39.7], [0.44378, 51.745695, 38.1], [0.44404, 51.74518, 36.7], [0.44417, 51.74487, 36.7], [0.44421, 51.7447, 36.7], [0.44427, 51.74427, 37.1], [0.44435, 51.74398, 37.1], [0.44456, 51.74354, 35.2], [0.44474, 51.74286, 33.9], [0.44484, 51.7424, 34.3], [0.44503, 51.74194, 34.6], [0.445135, 51.741354, 33.8], [0.44524, 51.74077, 32.6], [0.444005, 51.740795, 29.5], [0.44277, 51.74082, 28.7], [0.442045, 51.740855, 28.5], [0.44132, 51.74089, 28.6], [0.44044, 51.74097, 29.3], [0.43943, 51.74103, 30.0], [0.43842, 51.74109, 31.2], [0.43721, 51.74111, 32.9], [0.436299, 51.741115, 33.7], [0.43539, 51.74112, 33.9], [0.4346, 51.74116, 34.0], [0.4339, 51.74124, 34.2], [0.43268, 51.741435, 34.4], [0.43146, 51.74163, 34.7], [0.43116, 51.74166, 34.7], [0.43057, 51.74162, 34.8], [0.4305, 51.74158, 34.8], [0.43038, 51.74146, 34.6], [0.43034, 51.74139, 34.3], [0.43027, 51.7412, 34.3], [0.430194, 51.740305, 31.2], [0.43012, 51.73941, 29.0], [0.43006, 51.73889, 28.7], [0.42999, 51.73853, 28.4], [0.43008, 51.73775, 28.0], [0.43005, 51.7376, 28.0], [0.42997, 51.73735, 28.0], [0.4298, 51.73704, 28.1], [0.42942, 51.73644, 28.6], [0.42906, 51.73603, 28.9], [0.428539, 51.73549, 29.2], [0.42802, 51.73495, 30.2], [0.42752, 51.73435, 31.4], [0.427094, 51.733685, 33.6], [0.42667, 51.73302, 34.7], [0.42608, 51.73229, 36.7], [0.42595, 51.73215, 36.9], [0.42567, 51.73194, 37.7], [0.42526, 51.73176, 39.3], [0.42495, 51.73168, 39.3], [0.42422, 51.73151, 40.5], [0.42316, 51.73134, 41.7], [0.42297, 51.73127, 42.4], [0.4224, 51.73097, 43.3], [0.42213, 51.73086, 43.9], [0.42168, 51.73077, 44.6], [0.420614, 51.73067, 47.2], [0.41955, 51.73057, 48.6], [0.41829, 51.7304, 50.5], [0.417559, 51.730335, 51.4], [0.41683, 51.73027, 51.9], [0.41634, 51.73018, 52.2], [0.41548, 51.73, 52.9], [0.414574, 51.72975, 54.1], [0.41367, 51.7295, 55.2], [0.412884, 51.729265, 56.1], [0.4121, 51.72903, 56.6], [0.41082, 51.72868, 57.1], [0.41038, 51.72851, 57.2], [0.41027, 51.72835, 57.2], [0.41034, 51.72808, 56.9], [0.41051, 51.72773, 56.8], [0.41053, 51.72739, 56.5], [0.41042, 51.727, 55.3], [0.41015, 51.72646, 54.9], [0.40994, 51.72614, 55.1], [0.40958, 51.72581, 55.5], [0.40936, 51.72568, 56.1], [0.40919, 51.7256, 56.3], [0.40905, 51.72557, 56.4], [0.40849, 51.72578, 56.6], [0.40799, 51.72602, 57.0], [0.40683, 51.72645, 57.9], [0.405615, 51.726845, 59.4], [0.4044, 51.72724, 59.4], [0.403185, 51.727635, 57.8], [0.40197, 51.72803, 54.3], [0.40172, 51.72809, 54.2], [0.40094, 51.7282, 55.2], [0.40044, 51.72823, 56.1], [0.40003, 51.72823, 56.6], [0.39969, 51.72821, 58.3], [0.39907, 51.72814, 59.1], [0.39859, 51.72806, 60.1], [0.39795, 51.7279, 60.8], [0.39745, 51.72775, 61.1], [0.396532, 51.727335, 61.9], [0.395614, 51.72692, 62.4], [0.394697, 51.726505, 63.2], [0.39378, 51.72609, 63.9], [0.39306, 51.72581, 64.6], [0.3923, 51.7256, 65.3], [0.39179, 51.72549, 65.8], [0.39113, 51.7254, 66.0], [0.39031, 51.72535, 66.3], [0.389475, 51.72538, 66.3], [0.38864, 51.72541, 66.3], [0.38764, 51.72542, 66.4], [0.3868, 51.72534, 67.0], [0.38602, 51.7252, 68.0], [0.38541, 51.72504, 68.2], [0.38486, 51.72487, 68.2], [0.384013, 51.724556, 67.9], [0.383166, 51.724243, 66.7], [0.38232, 51.72393, 65.6], [0.381509, 51.72368, 64.9], [0.3807, 51.72343, 63.8], [0.37992, 51.72326, 63.6], [0.378959, 51.7231, 64.6], [0.378, 51.72294, 66.1], [0.376673, 51.722766, 67.7], [0.375346, 51.722593, 70.5], [0.37402, 51.72242, 71.6], [0.372959, 51.72225, 72.7], [0.3719, 51.72208, 73.0], [0.371189, 51.72194, 72.5], [0.37048, 51.7218, 72.3], [0.369239, 51.721535, 70.7], [0.368, 51.72127, 68.3], [0.366721, 51.720984, 66.2], [0.365442, 51.720698, 63.9], [0.364164, 51.720412, 63.2], [0.362885, 51.720127, 60.1], [0.361607, 51.719841, 59.3], [0.360328, 51.719555, 60.0], [0.35905, 51.71927, 62.7], [0.3578, 51.71903, 63.9], [0.356694, 51.718857, 65.2], [0.355589, 51.718685, 66.6], [0.354484, 51.718512, 68.3], [0.35338, 51.71834, 69.4], [0.35254, 51.71823, 69.8], [0.35139, 51.71811, 71.5], [0.35034, 51.71806, 72.7], [0.3489, 51.71809, 73.7], [0.34773, 51.718173, 74.0], [0.34656, 51.718256, 73.9], [0.34539, 51.71834, 73.2], [0.34447, 51.71839, 72.6], [0.34305, 51.71839, 72.5], [0.34232, 51.71834, 72.5], [0.341174, 51.718235, 73.3], [0.34003, 51.71813, 74.0], [0.338964, 51.71801, 75.1], [0.3379, 51.71789, 75.9], [0.337069, 51.717745, 76.2], [0.33624, 51.7176, 77.2], [0.335154, 51.717345, 78.1], [0.33407, 51.71709, 79.1], [0.332836, 51.71678, 80.2], [0.331603, 51.71647, 81.1], [0.33037, 51.71616, 81.6], [0.329269, 51.715856, 82.0], [0.328169, 51.715553, 83.2], [0.32707, 51.71525, 84.1], [0.326229, 51.715005, 85.6], [0.32539, 51.71476, 86.3], [0.324414, 51.71446, 88.2], [0.32344, 51.71416, 90.0], [0.322254, 51.713768, 92.3], [0.321068, 51.713377, 94.4], [0.319882, 51.712985, 95.9], [0.318697, 51.712594, 96.8], [0.317511, 51.712202, 98.3], [0.316325, 51.711811, 99.3], [0.31514, 51.71142, 99.7], [0.31449, 51.71124, 99.6], [0.31377, 51.71108, 99.4], [0.31344, 51.71103, 99.3], [0.31244, 51.7109, 98.3], [0.31119, 51.71078, 97.0], [0.30989, 51.71062, 95.1], [0.308984, 51.71048, 93.1], [0.30808, 51.71034, 90.4], [0.306735, 51.710094, 87.9], [0.305391, 51.709848, 84.7], [0.304047, 51.709602, 80.6], [0.302703, 51.709356, 78.0], [0.30136, 51.70911, 75.8], [0.30089, 51.70905, 75.8], [0.300009, 51.709015, 76.1], [0.29913, 51.70898, 76.7], [0.29806, 51.708995, 77.7], [0.29699, 51.70901, 79.1], [0.29558, 51.70914, 80.6], [0.29461, 51.709265, 80.9], [0.29364, 51.70939, 80.9], [0.292385, 51.709505, 80.6], [0.29113, 51.70962, 80.2], [0.290145, 51.70964, 79.8], [0.28916, 51.70966, 78.9], [0.287749, 51.709635, 76.3], [0.28634, 51.70961, 73.8], [0.28544, 51.70961, 72.7], [0.284416, 51.709676, 70.6], [0.283393, 51.709743, 69.5], [0.28237, 51.70981, 68.2], [0.281645, 51.70983, 67.8], [0.28092, 51.70985, 65.6], [0.27985, 51.70987, 64.1], [0.27878, 51.70989, 63.1], [0.27818, 51.70996, 62.3], [0.27763, 51.71007, 61.2], [0.2772, 51.71019, 61.2], [0.276515, 51.710365, 60.5], [0.27583, 51.71054, 59.9], [0.27466, 51.71082, 57.7], [0.27334, 51.71102, 54.5], [0.27272, 51.71109, 53.6], [0.2717, 51.71118, 52.3], [0.270388, 51.711286, 52.3], [0.269076, 51.711392, 52.7], [0.267764, 51.711498, 53.3], [0.266452, 51.711604, 53.9], [0.26514, 51.71171, 54.1], [0.264, 51.71186, 53.7], [0.26326, 51.712, 52.8], [0.26274, 51.71212, 52.8], [0.26172, 51.71234, 51.1], [0.260915, 51.712545, 48.8], [0.26011, 51.71275, 47.0], [0.25971, 51.71284, 46.0], [0.25889, 51.71297, 44.8], [0.25821, 51.71302, 44.2], [0.25694, 51.71304, 43.9], [0.255704, 51.71296, 44.4], [0.25447, 51.71288, 45.9], [0.253224, 51.712825, 48.7], [0.25198, 51.71277, 52.0], [0.250814, 51.71274, 53.8], [0.24965, 51.71271, 56.0], [0.248774, 51.7127, 57.7], [0.2479, 51.71269, 59.8], [0.246795, 51.712705, 61.9], [0.24569, 51.71272, 63.4], [0.24546, 51.71266, 63.4], [0.24545, 51.71265, 63.4], [0.24532, 51.71257, 63.6], [0.24521, 51.71246, 63.6], [0.24515, 51.71232, 63.6], [0.24514, 51.7122, 63.6], [0.24536, 51.71162, 62.8], [0.24542, 51.71136, 62.4], [0.24542, 51.7112, 62.1], [0.24538, 51.71105, 61.9], [0.2453, 51.71081, 61.2], [0.244984, 51.71031, 58.8], [0.24467, 51.70981, 57.4], [0.24461, 51.70963, 57.1], [0.24459, 51.70951, 56.8], [0.24464, 51.70912, 56.2], [0.244775, 51.708375, 55.3], [0.24491, 51.70763, 54.6], [0.24504, 51.70707, 53.7], [0.24515, 51.70639, 52.9], [0.24538, 51.70572, 52.7], [0.24552, 51.70537, 52.5], [0.2456, 51.70497, 52.8], [0.24562, 51.70459, 53.1], [0.24561, 51.70442, 53.0], [0.24548, 51.70366, 52.2], [0.24538, 51.7034, 51.7], [0.24524, 51.70324, 50.1], [0.24451, 51.7026, 47.5], [0.2441, 51.70219, 45.3], [0.243589, 51.70164, 43.4], [0.24308, 51.70109, 43.4], [0.24284, 51.7008, 43.4], [0.2428, 51.70062, 43.2], [0.24281, 51.70054, 43.2], [0.24343, 51.69982, 43.7], [0.24372, 51.69942, 44.9], [0.24389, 51.69914, 46.8], [0.24395, 51.699, 48.2], [0.24396, 51.69873, 50.7], [0.24379, 51.698, 54.1], [0.24368, 51.69742, 57.4], [0.24369, 51.69721, 58.1], [0.24373, 51.69709, 58.4], [0.24366, 51.69697, 58.8], [0.24352, 51.69645, 59.9], [0.24349, 51.69601, 60.7], [0.24359, 51.69537, 62.4], [0.2434, 51.6948, 62.3], [0.243054, 51.694295, 61.7], [0.24271, 51.69379, 60.8], [0.242319, 51.693135, 57.4], [0.24193, 51.69248, 52.4], [0.24155, 51.69223, 50.2], [0.24103, 51.69208, 48.1], [0.24004, 51.69186, 47.1], [0.23968, 51.69173, 48.0], [0.238903, 51.691373, 51.9], [0.238126, 51.691016, 56.9], [0.23735, 51.69066, 58.1], [0.23701, 51.69049, 58.2], [0.236334, 51.690085, 57.2], [0.23566, 51.68968, 55.0], [0.235104, 51.68932, 52.9], [0.23455, 51.68896, 51.5], [0.23437, 51.68881, 51.3], [0.23423, 51.68862, 51.2], [0.23419, 51.68843, 51.3], [0.234129, 51.68791, 51.2], [0.23407, 51.68739, 49.0], [0.23393, 51.68715, 47.0], [0.23371, 51.68693, 46.1], [0.23283, 51.68622, 42.8], [0.23223, 51.68571, 41.2], [0.23193, 51.68539, 40.2], [0.23174, 51.68512, 39.7], [0.23158, 51.68483, 39.2], [0.2313, 51.68405, 38.3], [0.2312, 51.68381, 38.1], [0.23107, 51.68356, 38.1], [0.2308, 51.68321, 38.2], [0.23061, 51.68304, 38.3], [0.23014, 51.68267, 38.3], [0.2298, 51.68247, 38.9], [0.22933, 51.68215, 39.9], [0.22902, 51.68187, 40.6], [0.2284, 51.68143, 42.2], [0.22781, 51.68106, 43.5], [0.2274, 51.68076, 45.2], [0.22701, 51.68041, 46.0], [0.226144, 51.679835, 47.9], [0.22528, 51.67926, 49.1], [0.22485, 51.67901, 49.1], [0.22423, 51.67875, 49.1], [0.22322, 51.67853, 48.5], [0.22222, 51.67839, 47.9], [0.22138, 51.67835, 48.0], [0.220186, 51.678266, 47.7], [0.218993, 51.678183, 48.4], [0.2178, 51.6781, 48.5], [0.21718, 51.678, 47.8], [0.216249, 51.67778, 46.7], [0.21532, 51.67756, 45.4], [0.2144, 51.67718, 44.6], [0.21384, 51.67686, 44.8], [0.2132, 51.67643, 46.3], [0.212352, 51.675745, 47.1], [0.211504, 51.67506, 46.3], [0.210657, 51.674375, 43.9], [0.20981, 51.67369, 41.3], [0.20949, 51.67342, 39.4], [0.208839, 51.672802, 37.5], [0.208189, 51.672185, 36.5], [0.207539, 51.671567, 36.3], [0.20689, 51.67095, 36.2], [0.20651, 51.67066, 36.1], [0.205694, 51.670105, 36.0], [0.20488, 51.66955, 36.2], [0.203854, 51.66892, 37.8], [0.20283, 51.66829, 41.8], [0.20206, 51.66776, 44.1], [0.20187, 51.66759, 45.3], [0.20127, 51.66724, 47.2], [0.200679, 51.66695, 48.0], [0.20009, 51.66666, 47.8], [0.19935, 51.66642, 46.7], [0.198599, 51.66621, 44.9], [0.19785, 51.666, 42.6], [0.197109, 51.665845, 41.2], [0.19637, 51.66569, 41.1], [0.195374, 51.665425, 43.9], [0.19438, 51.66516, 45.8], [0.19369, 51.66491, 46.0], [0.192556, 51.66441, 46.1], [0.191423, 51.66391, 46.5], [0.19029, 51.66341, 47.2], [0.189689, 51.66312, 47.5], [0.18909, 51.66283, 48.7], [0.18839, 51.66255, 49.8], [0.18758, 51.66232, 51.1], [0.18635, 51.66204, 52.8], [0.18589, 51.6619, 53.6], [0.18474, 51.66151, 54.4], [0.18369, 51.66109, 54.2], [0.18324, 51.6609, 53.7], [0.18244, 51.66049, 52.5], [0.18175, 51.66002, 51.1], [0.18132, 51.6597, 49.2], [0.18088, 51.65945, 47.4], [0.180234, 51.65918, 46.0], [0.17959, 51.65891, 44.9], [0.178909, 51.658665, 43.6], [0.17823, 51.65842, 41.1], [0.177189, 51.65807, 35.9], [0.176149, 51.65772, 33.2], [0.17511, 51.65737, 31.5], [0.17449, 51.65713, 31.2], [0.17384, 51.6568, 30.5], [0.17361, 51.65665, 30.5], [0.17311, 51.65628, 30.4], [0.17292, 51.6561, 30.4], [0.17265, 51.6558, 30.5], [0.17227, 51.65531, 31.0], [0.17227, 51.65513, 31.1], [0.1723, 51.65502, 31.1], [0.17236, 51.65491, 31.1], [0.17233, 51.6548, 31.1], [0.17223, 51.6547, 31.1], [0.17191, 51.65459, 31.1], [0.17165, 51.65438, 31.2], [0.171303, 51.653543, 34.1], [0.170956, 51.652706, 38.5], [0.17061, 51.65187, 42.3], [0.17033, 51.65112, 45.3], [0.17009, 51.65062, 46.6], [0.16984, 51.65022, 48.8], [0.169494, 51.64978, 50.1], [0.16915, 51.64934, 51.1], [0.16891, 51.64899, 53.1], [0.16853, 51.64826, 57.7], [0.1684, 51.64806, 58.7], [0.16804, 51.64762, 60.5], [0.16776, 51.64734, 61.8], [0.16749, 51.64712, 62.1], [0.16712, 51.64687, 63.3], [0.16639, 51.64644, 64.5], [0.16618, 51.64628, 64.8], [0.16593, 51.64605, 65.4], [0.16574, 51.64583, 65.7], [0.16556, 51.64553, 67.3], [0.1655, 51.6454, 67.8], [0.16542, 51.6451, 68.4], [0.165364, 51.64461, 70.0], [0.16531, 51.64412, 70.8], [0.16507, 51.64324, 72.5], [0.16499, 51.64286, 73.7], [0.16498, 51.64241, 75.4], [0.16514, 51.64196, 76.2], [0.164469, 51.641755, 71.8], [0.1638, 51.64155, 69.5], [0.1636, 51.64143, 69.5], [0.16311, 51.64107, 71.1], [0.16258, 51.64076, 75.2], [0.16192, 51.64027, 78.1], [0.16161, 51.64002, 78.8], [0.16101, 51.63949, 79.0], [0.16057, 51.63917, 79.0], [0.159964, 51.638875, 79.6], [0.15936, 51.63858, 80.0], [0.158739, 51.63833, 80.3], [0.15812, 51.63808, 80.2], [0.15783, 51.63792, 80.2], [0.15744, 51.63766, 79.9], [0.15729, 51.6376, 80.0], [0.15635, 51.63739, 80.7], [0.15543, 51.63731, 81.2], [0.15477, 51.63714, 82.3], [0.15442, 51.63708, 82.5], [0.15427, 51.63707, 83.1], [0.153175, 51.63709, 83.3], [0.15208, 51.63711, 82.6], [0.15122, 51.63721, 81.6], [0.1509, 51.63723, 81.3], [0.15056, 51.63723, 81.3], [0.15027, 51.6372, 81.3], [0.1499, 51.63713, 81.9], [0.14881, 51.63681, 82.3], [0.14849, 51.6367, 82.8], [0.14827, 51.6366, 83.2], [0.14819, 51.63654, 83.2], [0.14808, 51.6364, 83.5], [0.14801, 51.63613, 84.5], [0.14797, 51.63543, 86.1], [0.14794, 51.6353, 86.2], [0.14764, 51.63455, 88.1], [0.14731, 51.6338, 90.2], [0.1472, 51.63359, 90.5], [0.147, 51.63339, 90.6], [0.1468, 51.63346, 90.7], [0.14644, 51.63349, 90.7], [0.1451, 51.63355, 90.3], [0.14409, 51.63364, 90.3], [0.143205, 51.63369, 90.8], [0.14232, 51.63374, 91.7], [0.14201, 51.63379, 92.0], [0.14149, 51.63394, 93.4], [0.14114, 51.63398, 94.1], [0.13997, 51.63403, 96.5], [0.13932, 51.63399, 97.5], [0.13906, 51.63392, 97.6], [0.13898, 51.63381, 97.6], [0.13895, 51.63374, 97.6], [0.13875, 51.6329, 96.7], [0.13851, 51.63239, 96.4], [0.13797, 51.63185, 95.1], [0.13751, 51.63135, 94.6], [0.13725, 51.63094, 94.3], [0.13694, 51.63019, 93.6], [0.13675, 51.62983, 92.4], [0.13668, 51.62975, 91.9], [0.13649, 51.62959, 91.6], [0.13628, 51.62948, 91.6], [0.13611, 51.62941, 91.1], [0.13545, 51.6292, 89.7], [0.13413, 51.62888, 84.3], [0.13398, 51.62884, 85.0], [0.13384, 51.62876, 83.7], [0.1332, 51.62828, 77.2], [0.132414, 51.62765, 79.4], [0.13163, 51.62702, 81.9], [0.130862, 51.626492, 82.2], [0.130094, 51.625965, 82.0], [0.129327, 51.625437, 80.3], [0.12856, 51.62491, 80.6], [0.12826, 51.62476, 80.4], [0.1275, 51.62443, 79.6], [0.126879, 51.62417, 78.6], [0.12626, 51.62391, 77.2], [0.12596, 51.6238, 77.1], [0.12582, 51.62373, 76.5], [0.124814, 51.623365, 74.9], [0.12381, 51.623, 74.7], [0.122869, 51.622675, 74.9], [0.12193, 51.62235, 75.2], [0.121074, 51.62209, 75.8], [0.12022, 51.62183, 76.1], [0.11962, 51.62159, 76.7], [0.118649, 51.621305, 77.9], [0.11768, 51.62102, 78.8], [0.11707, 51.62081, 79.6], [0.11651, 51.62058, 80.2], [0.11549, 51.62012, 81.5], [0.11453, 51.61991, 81.9], [0.11418, 51.61981, 82.0], [0.113283, 51.61952, 82.0], [0.112386, 51.61923, 81.8], [0.11149, 51.61894, 81.6], [0.110344, 51.61858, 81.0], [0.1092, 51.61822, 80.8], [0.1086, 51.61808, 80.8], [0.10748, 51.61785, 81.5], [0.106363, 51.61767, 82.7], [0.105246, 51.61749, 84.0], [0.10413, 51.61731, 85.5], [0.10289, 51.61708, 86.3], [0.10174, 51.61685, 86.2], [0.10059, 51.61655, 84.0], [0.09982, 51.61631, 83.2], [0.0995, 51.61618, 82.0], [0.09922, 51.61639, 82.8], [0.09866, 51.61679, 83.6], [0.0981, 51.61719, 83.1], [0.09751, 51.61763, 80.5], [0.09692, 51.61807, 76.7], [0.09653, 51.6185, 72.0], [0.09627, 51.61889, 68.6], [0.09614, 51.61903, 67.3], [0.09602, 51.6191, 67.3], [0.09588, 51.61912, 65.8], [0.09574, 51.61911, 65.2], [0.09484, 51.6189, 62.0], [0.09466, 51.61888, 62.0], [0.09444, 51.61891, 61.1], [0.09392, 51.61906, 59.7], [0.09334, 51.61938, 56.9], [0.09319, 51.61948, 56.2], [0.09225, 51.619944, 54.6], [0.09131, 51.620408, 54.9], [0.09037, 51.620872, 53.3], [0.08943, 51.621336, 46.5], [0.08849, 51.6218, 43.8], [0.08814, 51.62189, 44.0], [0.086995, 51.62216, 45.8], [0.08585, 51.62243, 48.0], [0.0854, 51.62259, 49.2], [0.08505, 51.62301, 51.8], [0.08493, 51.62337, 53.3], [0.08495, 51.62353, 54.4], [0.08489, 51.62388, 56.0], [0.08472, 51.62413, 57.0], [0.08442, 51.62449, 58.8], [0.08409, 51.6248, 60.1], [0.08363, 51.62518, 61.3], [0.08317, 51.62556, 63.2], [0.08259, 51.6259, 63.9], [0.08225, 51.62556, 62.6], [0.08174, 51.62513, 61.2], [0.08129, 51.62482, 60.2], [0.08086, 51.62448, 59.3], [0.0803, 51.624765, 58.6], [0.07974, 51.62505, 58.8], [0.078995, 51.6254, 58.2], [0.07825, 51.62575, 58.2], [0.077225, 51.626265, 59.1], [0.0762, 51.62678, 57.0], [0.0756, 51.62693, 54.4], [0.07492, 51.62693, 53.4], [0.073836, 51.627023, 50.6], [0.072753, 51.627116, 48.0], [0.07167, 51.62721, 45.2], [0.07119, 51.62726, 44.1], [0.06982, 51.62745, 39.4], [0.06845, 51.62764, 35.7], [0.06811, 51.62763, 35.2], [0.06781, 51.62758, 34.7], [0.06759, 51.62748, 34.2], [0.0674, 51.62734, 33.9], [0.066869, 51.626595, 32.7], [0.06634, 51.62585, 32.0], [0.06607, 51.6255, 31.3], [0.06601, 51.62543, 30.9], [0.06594, 51.6254, 30.9], [0.06524, 51.62574, 27.8], [0.06456, 51.626, 25.6], [0.06416, 51.62614, 24.8], [0.0636, 51.62628, 23.2], [0.06328, 51.62634, 22.2], [0.0625, 51.62645, 20.7], [0.061345, 51.626635, 18.9], [0.06019, 51.62682, 17.4], [0.05923, 51.62695, 17.3], [0.05842, 51.626995, 17.0], [0.05761, 51.62704, 16.9], [0.056735, 51.62711, 16.8], [0.05586, 51.62718, 16.9], [0.05556, 51.62719, 16.9], [0.05491, 51.62726, 17.0], [0.053925, 51.6273, 17.3], [0.05294, 51.62734, 19.2], [0.0519, 51.62736, 24.0], [0.050759, 51.627287, 28.3], [0.049619, 51.627215, 30.8], [0.048479, 51.627142, 35.4], [0.04734, 51.62707, 39.1], [0.04619, 51.62711, 41.5], [0.04505, 51.62705, 44.4], [0.04362, 51.62693, 49.7], [0.04334, 51.62694, 49.7], [0.04228, 51.62708, 52.4], [0.04169, 51.62712, 54.4], [0.04058, 51.62717, 59.0], [0.03947, 51.62722, 62.1], [0.03854, 51.62721, 65.5], [0.037202, 51.627145, 70.2], [0.035864, 51.62708, 73.9], [0.034527, 51.627015, 78.9], [0.03319, 51.62695, 81.4], [0.03299, 51.62698, 81.6], [0.03293, 51.62688, 81.7], [0.03262, 51.62648, 82.0], [0.03228, 51.6261, 82.0], [0.031849, 51.62552, 81.6], [0.03142, 51.62494, 81.3], [0.031014, 51.624335, 80.6], [0.03061, 51.62373, 79.4], [0.030229, 51.623125, 78.4], [0.02985, 51.62252, 77.4], [0.02968, 51.62234, 76.6], [0.029229, 51.621925, 75.3], [0.02878, 51.62151, 74.0], [0.02809, 51.62079, 72.4], [0.02784, 51.62062, 72.1], [0.0278, 51.62056, 72.1], [0.02773, 51.62033, 71.6], [0.02754, 51.61992, 70.7], [0.02739, 51.61954, 69.8], [0.027134, 51.619035, 69.7], [0.02688, 51.61853, 69.5], [0.026639, 51.618084, 70.2], [0.0264, 51.61764, 70.8], [0.02631, 51.6176, 70.8], [0.02626, 51.6175, 70.7], [0.0263, 51.61746, 70.7], [0.02591, 51.61674, 71.0], [0.02567, 51.61624, 72.5], [0.02541, 51.61565, 73.9], [0.02511, 51.61483, 74.5], [0.025, 51.61458, 74.1], [0.0249, 51.61451, 74.1], [0.024679, 51.61407, 72.9], [0.02446, 51.61363, 71.9], [0.024, 51.6128, 70.1], [0.023714, 51.61237, 69.2], [0.02343, 51.61194, 68.4], [0.02289, 51.6112, 67.3], [0.02233, 51.61056, 66.6], [0.021974, 51.610075, 66.2], [0.02162, 51.60959, 66.0], [0.02128, 51.60911, 65.7], [0.02113, 51.60886, 65.5], [0.02116, 51.6088, 65.3], [0.02107, 51.60869, 65.3], [0.02102, 51.60864, 65.3], [0.02095, 51.60862, 65.3], [0.020484, 51.607995, 64.8], [0.02002, 51.60737, 64.4], [0.02007, 51.6073, 63.9], [0.01991, 51.60711, 63.8], [0.01981, 51.60708, 63.8], [0.01911, 51.60647, 62.7], [0.01894, 51.60624, 62.3], [0.01877, 51.6059, 61.8], [0.01871, 51.6057, 61.8], [0.01868, 51.60547, 60.4], [0.01869, 51.60504, 60.0], [0.01876, 51.60478, 59.5], [0.01874, 51.6047, 59.5], [0.01888, 51.60421, 57.9], [0.01902, 51.60372, 57.6], [0.01918, 51.60299, 55.8], [0.01928, 51.60265, 53.9], [0.01931, 51.6024, 52.3], [0.0193, 51.60176, 50.8], [0.01937, 51.60135, 50.7], [0.01955, 51.60085, 51.1], [0.01981, 51.60037, 51.5], [0.02022, 51.59967, 52.2], [0.02052, 51.59904, 52.1], [0.02084, 51.598285, 50.6], [0.02116, 51.59753, 49.1], [0.02129, 51.59733, 48.8], [0.02144, 51.59699, 47.6], [0.02145, 51.59688, 47.6], [0.02155, 51.59683, 47.3], [0.02161, 51.59671, 47.3], [0.02164, 51.59665, 47.1], [0.02159, 51.59659, 47.1], [0.02168, 51.5963, 46.7], [0.02176, 51.59608, 46.2], [0.0218, 51.596, 46.2], [0.02187, 51.59597, 46.2], [0.02197, 51.59575, 45.8], [0.02199, 51.59569, 45.8], [0.02194, 51.59564, 45.7], [0.02198, 51.59555, 45.7], [0.02208, 51.59552, 45.5], [0.02224, 51.5951, 45.1], [0.02225, 51.59506, 45.1], [0.02219, 51.595, 45.0], [0.02221, 51.5949, 45.0], [0.02227, 51.59487, 44.9], [0.02229, 51.59476, 44.9], [0.02231, 51.59462, 44.6], [0.02226, 51.59457, 44.6], [0.02238, 51.59369, 43.4], [0.02242, 51.59327, 42.8], [0.02243, 51.59261, 41.7], [0.02249, 51.59186, 40.2], [0.02248, 51.59163, 39.5], [0.02243, 51.5913, 38.8], [0.022289, 51.59054, 37.3], [0.02215, 51.58978, 36.3], [0.02203, 51.58921, 35.3], [0.02184, 51.58861, 34.9], [0.021639, 51.58804, 34.1], [0.02144, 51.58747, 33.8], [0.021259, 51.58676, 33.3], [0.02108, 51.58605, 32.1], [0.020809, 51.585325, 31.2], [0.02054, 51.5846, 29.6], [0.02039, 51.58416, 28.7], [0.02034, 51.58394, 27.9], [0.02025, 51.58352, 26.9], [0.02028, 51.58339, 26.9], [0.02027, 51.5833, 26.1], [0.02023, 51.58319, 26.1], [0.02028, 51.58307, 26.1], [0.02029, 51.58298, 25.5], [0.02024, 51.58282, 25.2], [0.02027, 51.58243, 24.9], [0.02031, 51.58239, 24.9], [0.02032, 51.58211, 25.2], [0.02026, 51.58193, 25.6], [0.02023, 51.58177, 26.2], [0.02019, 51.58169, 26.2], [0.02011, 51.58162, 26.5], [0.01985, 51.58122, 28.0], [0.01967, 51.58103, 28.4], [0.01926, 51.58067, 29.5], [0.01855, 51.58013, 31.0], [0.01807, 51.57973, 31.4], [0.01785, 51.57942, 31.9], [0.01777, 51.57925, 32.0], [0.01775, 51.57907, 32.1], [0.01785, 51.57853, 32.5], [0.01784, 51.57825, 32.8], [0.0178, 51.57813, 32.8], [0.01759, 51.57767, 33.3], [0.01755, 51.57746, 33.4], [0.017519, 51.576783, 33.3], [0.017489, 51.576106, 33.5], [0.01746, 51.57543, 34.6], [0.01748, 51.57471, 34.5], [0.01752, 51.5743, 33.9], [0.01748, 51.57413, 33.8], [0.01704, 51.57355, 33.6], [0.0166, 51.57306, 33.6], [0.01653, 51.57294, 33.6], [0.0165, 51.57277, 33.5], [0.01674, 51.57255, 33.2], [0.01715, 51.57208, 33.3], [0.01725, 51.57194, 33.3], [0.01725, 51.57178, 33.6], [0.01716, 51.57165, 33.6], [0.01706, 51.57157, 33.8], [0.01694, 51.57152, 33.8], [0.01678, 51.57148, 34.1], [0.01653, 51.57147, 34.3], [0.01637, 51.57152, 34.8], [0.0161, 51.57167, 35.2], [0.01597, 51.5719, 35.3], [0.01575, 51.57207, 35.4], [0.01537, 51.57225, 35.3], [0.01473, 51.57244, 35.0], [0.01424, 51.5725, 34.8], [0.0139, 51.57251, 34.8], [0.01359, 51.57249, 34.0], [0.01296, 51.57237, 32.5], [0.01239, 51.57216, 30.8], [0.012, 51.57196, 30.0], [0.01098, 51.57139, 25.9], [0.01007, 51.57081, 20.2], [0.00961, 51.57046, 20.2], [0.00926, 51.57016, 17.1], [0.008779, 51.56965, 17.2], [0.0083, 51.56914, 14.3], [0.00799, 51.56876, 13.6], [0.00768, 51.56834, 13.3], [0.0074, 51.56791, 14.2], [0.007114, 51.567415, 17.7], [0.00683, 51.56692, 20.1], [0.00654, 51.56646, 21.8], [0.006104, 51.565865, 22.3], [0.00567, 51.56527, 21.5], [0.005159, 51.564696, 19.8], [0.004649, 51.564123, 19.2], [0.00414, 51.56355, 18.7], [0.003384, 51.562875, 18.1], [0.00263, 51.5622, 17.7], [0.002074, 51.561795, 17.2], [0.00152, 51.56139, 16.5], [0.000874, 51.560945, 15.1], [0.00023, 51.5605, 14.2], [-0.000555, 51.559992, 15.2], [-0.00134, 51.559485, 15.6], [-0.002125, 51.558977, 14.3], [-0.00291, 51.55847, 12.6], [-0.003655, 51.558035, 10.3], [-0.0044, 51.5576, 8.9], [-0.00523, 51.55707, 8.2], [-0.00602, 51.55653, 7.7], [-0.00682, 51.55588, 6.8], [-0.00734, 51.55539, 6.4], [-0.00763, 51.55506, 6.5], [-0.00821, 51.55431, 11.4], [-0.00854, 51.55397, 12.8], [-0.00886, 51.55366, 14.4], [-0.0091, 51.55348, 15.1], [-0.0094, 51.55328, 16.0], [-0.01, 51.55293, 16.9], [-0.01035, 51.55275, 16.8], [-0.01071, 51.55259, 15.9], [-0.01147, 51.55234, 14.1], [-0.01228, 51.55212, 10.9], [-0.01326, 51.55193, 8.5], [-0.014075, 51.551805, 8.4], [-0.01489, 51.55168, 8.5], [-0.01622, 51.55156, 8.2], [-0.01712, 51.55149, 5.9], [-0.0183, 51.551435, 9.1], [-0.01948, 51.55138, 13.7], [-0.02055, 51.55127, 15.6], [-0.02109, 51.55116, 15.7], [-0.02176, 51.55098, 15.0], [-0.02252, 51.55067, 12.2], [-0.02315, 51.55035, 10.1], [-0.023885, 51.549905, 8.7], [-0.02462, 51.54946, 9.0], [-0.02523, 51.54912, 10.0], [-0.02583, 51.54881, 11.9], [-0.02634, 51.54859, 13.3], [-0.02679, 51.54843, 14.5], [-0.02744, 51.54827, 15.0], [-0.02788, 51.54819, 14.9], [-0.02899, 51.54805, 13.3], [-0.02958, 51.54793, 12.2], [-0.03008, 51.54777, 11.5], [-0.03067, 51.54753, 9.6], [-0.03146, 51.54708, 8.6], [-0.03168, 51.54691, 7.8], [-0.0318, 51.54677, 7.5], [-0.03186, 51.54665, 7.4], [-0.03194, 51.54636, 7.2], [-0.03193, 51.54604, 6.1], [-0.03184, 51.54584, 4.6], [-0.03166, 51.5456, 2.2], [-0.0315, 51.54547, 1.3], [-0.030889, 51.54512, 0.4], [-0.03028, 51.54477, 0.8], [-0.02961, 51.54428, 3.0], [-0.02882, 51.54361, 11.7], [-0.0283, 51.54302, 8.9], [-0.027799, 51.542555, 7.4], [-0.0273, 51.54209, 8.5], [-0.02688, 51.54161, 8.9], [-0.02643, 51.54077, 11.3], [-0.0264, 51.54059, 11.5], [-0.026199, 51.539836, 11.1], [-0.025999, 51.539083, 14.6], [-0.0258, 51.53833, 10.3], [-0.02568, 51.53767, 15.0], [-0.02565, 51.53724, 12.7], [-0.02553, 51.5368, 11.2], [-0.02539, 51.53635, 10.4], [-0.02522, 51.5361, 10.3], [-0.02507, 51.53584, 9.9], [-0.02476, 51.53549, 9.4], [-0.02447, 51.53518, 9.1], [-0.02412, 51.53489, 9.0], [-0.02362, 51.53458, 8.3], [-0.022626, 51.534038, 5.3], [-0.021633, 51.533496, 5.0], [-0.020639, 51.532955, 7.9], [-0.019646, 51.532413, 8.4], [-0.018653, 51.531871, 7.3], [-0.01766, 51.53133, 7.3], [-0.01735, 51.53113, 7.4], [-0.01684, 51.53089, 7.7], [-0.016214, 51.53065, 8.5], [-0.01559, 51.53041, 7.9], [-0.01451, 51.52996, 4.8], [-0.01355, 51.52943, 3.7], [-0.01306, 51.52912, 3.7], [-0.0126, 51.52878, 4.7], [-0.01224, 51.52845, 6.0], [-0.011834, 51.52803, 7.0], [-0.01143, 51.52761, 9.0], [-0.01183, 51.52818, 8.9], [-0.01224, 51.52863, 8.8], [-0.01303, 51.52923, 9.6], [-0.01343, 51.52947, 9.0], [-0.01357, 51.52961, 8.9], [-0.01356, 51.52965, 9.2], [-0.01334, 51.52976, 9.3], [-0.01325, 51.52983, 9.1], [-0.01271, 51.53005, 8.5], [-0.0118, 51.53049, 7.4], [-0.01124, 51.53081, 7.1], [-0.01075, 51.53115, 7.2], [-0.01053, 51.53137, 7.1], [-0.01006, 51.531735, 7.3], [-0.00959, 51.5321, 7.1], [-0.00925, 51.53234, 7.3], [-0.00919, 51.53235, 7.3], [-0.00853, 51.53283, 7.4], [-0.00787, 51.53331, 8.4], [-0.00784, 51.53338, 8.4], [-0.0075, 51.53362, 8.7], [-0.007, 51.53403, 9.2], [-0.00693, 51.53406, 9.2], [-0.00667, 51.53427, 9.3], [-0.00655, 51.53439, 9.3], [-0.006035, 51.53479, 7.4], [-0.00552, 51.53519, 6.9], [-0.0054, 51.53517, 8.0], [-0.00523, 51.53504, 8.2], [-0.00519, 51.53501, 8.2], [-0.00518, 51.53494, 8.2], [-0.00492, 51.53479, 7.8], [-0.00408, 51.5346, 6.6], [-0.00406, 51.53462, 6.6], [-0.00396, 51.53465, 5.6], [-0.00383, 51.53462, 5.6], [-0.0038, 51.53455, 7.3], [-0.00384, 51.53448, 7.3], [-0.00298, 51.53397, 6.2], [-0.00284, 51.53387, 6.2], [-0.00278, 51.53371, 6.0], [-0.00278, 51.53354, 5.9], [-0.00269, 51.53337, 5.9], [-0.00252, 51.53322, 5.9], [-0.00223, 51.53304, 6.0], [-0.00192, 51.533, 6.0], [-0.00167, 51.53302, 6.1], [-0.00069, 51.5334, 6.5], [-0.00059, 51.53334, 6.7], [-0.0004, 51.53311, 6.9], [-0.00037, 51.53305, 6.9], [-0.00027, 51.53277, 7.4], [-0.00025, 51.5325, 7.5], [-0.00023, 51.53239, 7.4], [-0.00015, 51.53219, 6.9], [0.00033, 51.53177, 6.2], [0.00066, 51.53131, 6.5], [0.00073, 51.53125, 6.7], [0.00083, 51.5312, 6.7], [0.00098, 51.53116, 6.7], [0.00122, 51.53115, 6.7], [0.00148, 51.5312, 6.7], [0.00184, 51.5313, 6.4], [0.00246, 51.53152, 7.1], [0.00263, 51.53156, 7.3], [0.003339, 51.531835, 8.5], [0.00405, 51.53211, 10.4], [0.00444, 51.53228, 10.2], [0.00547, 51.53282, 7.1], [0.00575, 51.53295, 6.8], [0.006579, 51.533095, 5.8], [0.00741, 51.53324, 5.7], [0.00769, 51.53326, 5.6], [0.00806, 51.53325, 5.5], [0.007899, 51.5328, 5.3], [0.00774, 51.53235, 5.3], [0.00761, 51.53203, 4.9], [0.00743, 51.53167, 5.0], [0.00707, 51.53133, 5.1], [0.006044, 51.53073, 5.2], [0.00502, 51.53013, 4.6], [0.00474, 51.52992, 4.3], [0.00471, 51.52979, 4.3], [0.00483, 51.52943, 4.4], [0.00488, 51.52931, 4.4], [0.00491, 51.52865, 4.4], [0.0049, 51.52859, 4.4], [0.00481, 51.52849, 4.1], [0.00479, 51.52843, 4.1], [0.00482, 51.52777, 3.9], [0.00483, 51.52708, 4.3], [0.00484, 51.52639, 4.2], [0.00485, 51.5257, 4.3], [0.00484, 51.5251, 4.4], [0.004754, 51.524435, 4.4], [0.00467, 51.52377, 4.9], [0.00469, 51.52294, 7.1], [0.00465, 51.52273, 7.1], [0.00437, 51.52186, 5.0], [0.00436, 51.52164, 4.4], [0.00437, 51.52141, 4.2], [0.00449, 51.52072, 3.7], [0.004555, 51.520169, 3.6], [0.00462, 51.51962, 3.5], [0.00472, 51.5192, 3.6], [0.00484, 51.51884, 3.7], [0.00504, 51.51836, 3.9], [0.00514, 51.5182, 3.9], [0.00543, 51.51791, 4.0], [0.00587, 51.51763, 4.3], [0.00682, 51.51721, 4.3], [0.0072, 51.51696, 4.4], [0.00741, 51.51676, 4.4], [0.00753, 51.5166, 4.4], [0.00761, 51.51644, 4.8], [0.0077, 51.51615, 5.0], [0.00774, 51.51612, 5.1], [0.00783, 51.51598, 5.3], [0.0082, 51.51565, 5.6], [0.00818, 51.51555, 5.5], [0.00809, 51.5154, 4.9], [0.008, 51.51533, 4.6], [0.00786, 51.51527, 4.3], [0.00854, 51.51491, 5.1], [0.009023, 51.51432, 4.7], [0.009506, 51.51373, 4.4], [0.00999, 51.51314, 4.2], [0.01038, 51.51262, 4.2], [0.01068, 51.51231, 4.2], [0.01083, 51.51221, 4.2], [0.01127, 51.51171, 5.2], [0.01136, 51.5116, 5.7], [0.01142, 51.51143, 5.8], [0.01171, 51.51111, 6.2], [0.012292, 51.510417, 9.1], [0.012875, 51.509725, 11.3], [0.013457, 51.509032, 11.6], [0.01404, 51.50834, 10.5], [0.01431, 51.50804, 9.0], [0.01445, 51.50806, 8.1], [0.0145, 51.50801, 11.0], [0.01451, 51.50797, 11.0], [0.01438, 51.50795, 10.9], [0.014955, 51.507275, 11.0], [0.01553, 51.5066, 11.7], [0.01528, 51.50663, 13.1], [0.01511, 51.50678, 12.8], [0.01456, 51.507385, 7.9], [0.01401, 51.50799, 3.6], [0.01372, 51.5082, 3.6], [0.01356, 51.50823, 4.2], [0.01341, 51.50833, 3.5], [0.01334, 51.50842, 1.2], [0.01326, 51.50847, 1.2], [0.01313, 51.50862, 1.6], [0.01297, 51.5087, 1.5], [0.01218, 51.5086, 1.9], [0.01212, 51.50874, 2.2], [0.01193, 51.50891, 3.0], [0.01162, 51.50911, 3.9], [0.01087, 51.509335, 8.0], [0.01012, 51.50956, 10.4], [0.00939, 51.50976, 11.2], [0.00858, 51.50993, 12.6], [0.00786, 51.51002, 15.0], [0.00681, 51.51011, 18.4], [0.00615, 51.51013, 19.3], [0.0055, 51.51011, 19.1], [0.00435, 51.51004, 14.5], [0.0038, 51.51003, 13.4], [0.00341, 51.51004, 11.9], [0.00232, 51.51013, 7.9], [0.00154, 51.51036, 7.3], [0.00125, 51.51039, 7.5], [0.00111, 51.51034, 7.6], [0.00097, 51.51032, 7.6], [0.00079, 51.51032, 7.8], [0.00051, 51.5104, 8.1], [8e-05, 51.51041, 7.6], [-0.00042, 51.51036, 7.1], [-0.00127, 51.51024, 5.4], [-0.00161, 51.51015, 5.2], [-0.00197, 51.51001, 5.5], [-0.00243, 51.50974, 6.1], [-0.00316, 51.509155, 7.7], [-0.00389, 51.50857, 8.1], [-0.00472, 51.50811, 6.8], [-0.00538, 51.507925, 6.8], [-0.00604, 51.50774, 8.1], [-0.00689, 51.50763, 11.0], [-0.008232, 51.50751, 14.8], [-0.009575, 51.50739, 12.8], [-0.010917, 51.50727, 6.7], [-0.01226, 51.50715, 5.3], [-0.013315, 51.507125, 5.4], [-0.01437, 51.5071, 5.6], [-0.01558, 51.50715, 6.0], [-0.016514, 51.507245, 6.5], [-0.01745, 51.50734, 7.0], [-0.01841, 51.50749, 6.9], [-0.01878, 51.50756, 6.9], [-0.01988, 51.50783, 6.5], [-0.02061, 51.50807, 5.3], [-0.021774, 51.508315, 1.7], [-0.02294, 51.50856, -1.6], [-0.02371, 51.50877, -1.6], [-0.02463, 51.50888, -1.6], [-0.02494, 51.50889, -1.6], [-0.02534, 51.50887, -1.6], [-0.02574, 51.5088, -1.6], [-0.02627, 51.50864, -1.6], [-0.02661, 51.50851, -1.6], [-0.02745, 51.50809, -1.6], [-0.02786, 51.50791, -1.6], [-0.0283, 51.50775, -1.6], [-0.0289, 51.50762, 5.8], [-0.02924, 51.5076, 5.8], [-0.02961, 51.5076, 5.8], [-0.03001, 51.50763, 5.8], [-0.03032, 51.50767, 5.8], [-0.0307, 51.50777, 5.8], [-0.03102, 51.50788, 5.8], [-0.03139, 51.50805, 5.8], [-0.03168, 51.50824, 5.8], [-0.03195, 51.50846, 5.8], [-0.03214, 51.50866, 5.8], [-0.032419, 51.509075, 5.8], [-0.0327, 51.50949, 5.8], [-0.033054, 51.509955, 5.8], [-0.03341, 51.51042, 5.8], [-0.03386, 51.51091, 5.8], [-0.03443, 51.51125, 5.8], [-0.03472, 51.51139, 5.8], [-0.03517, 51.51155, 5.8], [-0.03563, 51.51165, 5.8], [-0.03613, 51.51173, 5.8], [-0.03667, 51.51175, 6.4], [-0.03717, 51.51174, 6.4], [-0.03762, 51.51168, 6.4], [-0.0381, 51.51158, 6.4], [-0.03844, 51.51147, 6.4], [-0.03959, 51.51095, 6.4], [-0.03993, 51.51082, 6.4], [-0.04033, 51.51071, 6.4], [-0.04059, 51.51065, 7.9], [-0.04123, 51.51058, 8.6], [-0.0424, 51.5105, 8.4], [-0.04259, 51.5105, 8.6], [-0.04318, 51.51041, 8.7], [-0.04341, 51.51036, 8.8], [-0.04386, 51.51032, 8.8], [-0.04397, 51.51033, 8.8], [-0.04475, 51.5103, 9.0], [-0.04563, 51.51024, 9.2], [-0.04585, 51.51021, 9.4], [-0.04619, 51.51013, 9.8], [-0.04651, 51.51002, 10.0], [-0.04703, 51.50988, 10.3], [-0.04726, 51.50984, 10.7], [-0.04753, 51.50977, 10.9], [-0.04764, 51.50975, 10.9], [-0.04782, 51.50975, 11.5], [-0.04816, 51.50978, 11.5], [-0.049005, 51.50978, 12.0], [-0.04985, 51.50978, 11.6], [-0.05047, 51.50973, 11.2], [-0.0506, 51.50975, 11.2], [-0.05081, 51.50971, 11.3], [-0.0514, 51.50974, 11.1], [-0.05255, 51.509695, 11.5], [-0.0537, 51.50965, 12.1], [-0.05402, 51.50967, 12.2], [-0.05434, 51.50963, 12.2], [-0.05526, 51.50962, 10.9], [-0.056019, 51.50967, 10.5], [-0.05678, 51.50972, 10.5], [-0.05694, 51.50975, 10.5], [-0.05713, 51.50972, 10.5], [-0.05801, 51.50968, 10.6], [-0.05814, 51.5097, 10.5], [-0.0585, 51.50967, 10.4], [-0.0587, 51.50964, 10.3], [-0.05887, 51.50959, 10.3], [-0.05988, 51.50949, 10.6], [-0.06004, 51.50951, 10.6], [-0.0605, 51.50947, 10.7], [-0.06074, 51.50945, 10.9], [-0.06078, 51.50941, 10.9], [-0.06144, 51.50936, 11.1], [-0.06253, 51.50933, 11.1], [-0.06267, 51.50936, 11.0], [-0.06292, 51.50935, 10.8], [-0.06303, 51.50932, 10.8], [-0.06383, 51.50931, 9.9], [-0.06463, 51.5093, 9.4], [-0.065409, 51.50933, 9.2], [-0.06619, 51.50936, 9.5], [-0.06644, 51.50934, 9.9], [-0.067, 51.50926, 10.3], [-0.06758, 51.50911, 10.4], [-0.06773, 51.50905, 10.2], [-0.06783, 51.50896, 10.2], [-0.06822, 51.50886, 10.2], [-0.06844, 51.50882, 10.1], [-0.06873, 51.50873, 9.9], [-0.06891, 51.50864, 9.9], [-0.06904, 51.50865, 9.9], [-0.06962, 51.50854, 10.1], [-0.07036, 51.50842, 10.6], [-0.0711, 51.5083, 10.4], [-0.07117, 51.5083, 10.4], [-0.0713, 51.50826, 11.0], [-0.0717, 51.50833, 10.8], [-0.07179, 51.50839, 10.8], [-0.072584, 51.50866, 12.4], [-0.07338, 51.50893, 12.1], [-0.0735, 51.50902, 12.1], [-0.07367, 51.50901, 11.8], [-0.0738, 51.50892, 11.8], [-0.07398, 51.50867, 11.3], [-0.074135, 51.50795, 10.8], [-0.07429, 51.50723, 11.4], [-0.07435, 51.50719, 11.4], [-0.07436, 51.50712, 11.7], [-0.07441, 51.50703, 11.7], [-0.07439, 51.50697, 11.9], [-0.07445, 51.50686, 12.1], [-0.074962, 51.506102, 13.5], [-0.075475, 51.505345, 13.9], [-0.075987, 51.504587, 11.1], [-0.0765, 51.50383, 9.3], [-0.0765, 51.50375, 9.2], [-0.07653, 51.50372, 9.2], [-0.07659, 51.50369, 9.2], [-0.07685, 51.50329, 8.0]]}, "properties": {"name": "2024 Ford RideLondon-Essex 100"}}]}